{"type": "FeatureCollection", "source": "OpenStreetMap contributors, ODbL - relation 336074 (fetched 2026-09-27)", "features": [{"type": "Feature", "properties": {"name": "Bemowo", "slug": "bemowo", "osm_relation": 2531595, "in": {"en": "in Bemowo", "pl": "na Bemowie"}}, "geometry": {"type": "MultiPolygon", "coordinates": [[[[20.866583, 52.249613], [20.868057, 52.2494], [20.872207, 52.249404], [20.876548, 52.248551], [20.881712, 52.247915], [20.884023, 52.247313], [20.88489, 52.248177], [20.885161, 52.248139], [20.88502, 52.247202], [20.886538, 52.247265], [20.890983, 52.246966], [20.891159, 52.246454], [20.891459, 52.24499], [20.891761, 52.244768], [20.894017, 52.2437], [20.893143, 52.239712], [20.889513, 52.231999], [20.887277, 52.232161], [20.879732, 52.232022], [20.877977, 52.23094], [20.873101, 52.229084], [20.872786, 52.22883], [20.872712, 52.228679], [20.872725, 52.225805], [20.872682, 52.225687], [20.872537, 52.225668], [20.873099, 52.225252], [20.873657, 52.225017], [20.87528, 52.224803], [20.87462, 52.21666], [20.873086, 52.216665], [20.872754, 52.215233], [20.87194, 52.215264], [20.87143, 52.21316], [20.871016, 52.210382], [20.870159, 52.210391], [20.870203, 52.209857], [20.870899, 52.208853], [20.871605, 52.20897], [20.872777, 52.208998], [20.872753, 52.209123], [20.876838, 52.209582], [20.878582, 52.20955], [20.878221, 52.209321], [20.878324, 52.209239], [20.880344, 52.209066], [20.881126, 52.209603], [20.881716, 52.209844], [20.887083, 52.210887], [20.907365, 52.213416], [20.908663, 52.213513], [20.90865, 52.213604], [20.909792, 52.213629], [20.914237, 52.21419], [20.914394, 52.214635], [20.914663, 52.214627], [20.915471, 52.217146], [20.915661, 52.217168], [20.915761, 52.217329], [20.916978, 52.217434], [20.91995, 52.217926], [20.921191, 52.218294], [20.923033, 52.219183], [20.923765, 52.21975], [20.924376, 52.220584], [20.924563, 52.221331], [20.924568, 52.221881], [20.924497, 52.222181], [20.924413, 52.222198], [20.92365, 52.22384], [20.921711, 52.227591], [20.92145, 52.228469], [20.921476, 52.229415], [20.921308, 52.229408], [20.922732, 52.234182], [20.924655, 52.24004], [20.924757, 52.240256], [20.92486, 52.240251], [20.925045, 52.240674], [20.924869, 52.241191], [20.925001, 52.241313], [20.925158, 52.241265], [20.925596, 52.242425], [20.926024, 52.243083], [20.926915, 52.243887], [20.927592, 52.24432], [20.93213, 52.24669], [20.932668, 52.2469], [20.938533, 52.249893], [20.938476, 52.250019], [20.939217, 52.250269], [20.940396, 52.250517], [20.94412, 52.252442], [20.946164, 52.253973], [20.947859, 52.255921], [20.947224, 52.256809], [20.947008, 52.256981], [20.950113, 52.259608], [20.95094, 52.260461], [20.951797, 52.26143], [20.951944, 52.262261], [20.950881, 52.262921], [20.949686, 52.263287], [20.943922, 52.264839], [20.943711, 52.264581], [20.942942, 52.264781], [20.943036, 52.264922], [20.942643, 52.265213], [20.942029, 52.26614], [20.939703, 52.266887], [20.937171, 52.267464], [20.931446, 52.268531], [20.926857, 52.269576], [20.920148, 52.270832], [20.916716, 52.271625], [20.916448, 52.271892], [20.901749, 52.275332], [20.893425, 52.27717], [20.893469, 52.277239], [20.892795, 52.27749], [20.890552, 52.27894], [20.889925, 52.279451], [20.889132, 52.280482], [20.887865, 52.279986], [20.885863, 52.280433], [20.885641, 52.28004], [20.884963, 52.279339], [20.884414, 52.279093], [20.883875, 52.279071], [20.881154, 52.279514], [20.880332, 52.274602], [20.879532, 52.270407], [20.878719, 52.265149], [20.875714, 52.262133], [20.874898, 52.261706], [20.875124, 52.261476], [20.866234, 52.25246], [20.863887, 52.250227], [20.863806, 52.250017], [20.866583, 52.249613]]]]}}, {"type": "Feature", "properties": {"name": "Białołęka", "slug": "bialoleka", "osm_relation": 2556629, "in": {"en": "in Białołęka", "pl": "na Białołęce"}}, "geometry": {"type": "MultiPolygon", "coordinates": [[[[20.915136, 52.35403], [20.912429, 52.352976], [20.913789, 52.351717], [20.918324, 52.348066], [20.920374, 52.346669], [20.922343, 52.345036], [20.923716, 52.343661], [20.924297, 52.342724], [20.924861, 52.341604], [20.92553, 52.339652], [20.925712, 52.338728], [20.92582, 52.337556], [20.925805, 52.33638], [20.925016, 52.328026], [20.925209, 52.326639], [20.925731, 52.32475], [20.926579, 52.323079], [20.927782, 52.321358], [20.929422, 52.319587], [20.931033, 52.318201], [20.934719, 52.315997], [20.937339, 52.314744], [20.942087, 52.313159], [20.944106, 52.312374], [20.945716, 52.311623], [20.94749, 52.310654], [20.951638, 52.307784], [20.953294, 52.306003], [20.955116, 52.303446], [20.955709, 52.302798], [20.956746, 52.301884], [20.959023, 52.300394], [20.962066, 52.298802], [20.965509, 52.297371], [20.967529, 52.296683], [20.970041, 52.295961], [20.973955, 52.2951], [20.980564, 52.294013], [20.983193, 52.293392], [20.985741, 52.292639], [20.988578, 52.291606], [20.991246, 52.290414], [20.993719, 52.289074], [20.995762, 52.287751], [20.997346, 52.288474], [20.997009, 52.28871], [20.997125, 52.289058], [20.997107, 52.289429], [20.998795, 52.290337], [20.998825, 52.291739], [20.998341, 52.292139], [20.999077, 52.29282], [20.998887, 52.293024], [20.9992, 52.293156], [21.000584, 52.2933], [21.001448, 52.292474], [21.001605, 52.292423], [21.001595, 52.292333], [21.001737, 52.292197], [21.002152, 52.292049], [21.002827, 52.291379], [21.002987, 52.29137], [21.004395, 52.292021], [21.004731, 52.291623], [21.005542, 52.291701], [21.009716, 52.292953], [21.011761, 52.293648], [21.012595, 52.294181], [21.013125, 52.294851], [21.012585, 52.295721], [21.013065, 52.295854], [21.013254, 52.296636], [21.013023, 52.297487], [21.014612, 52.297937], [21.01503, 52.297382], [21.016008, 52.296615], [21.017129, 52.296915], [21.017992, 52.295904], [21.023085, 52.297674], [21.023185, 52.297831], [21.022737, 52.298566], [21.023578, 52.298837], [21.02414, 52.298238], [21.024319, 52.298212], [21.027026, 52.298796], [21.02812, 52.299141], [21.028157, 52.299075], [21.031128, 52.299881], [21.031112, 52.300269], [21.030899, 52.300638], [21.032259, 52.300993], [21.032716, 52.300391], [21.032913, 52.300343], [21.03555, 52.301082], [21.041162, 52.302402], [21.051752, 52.305084], [21.051703, 52.304864], [21.057321, 52.306281], [21.060377, 52.306938], [21.060589, 52.307071], [21.061247, 52.308062], [21.060874, 52.308047], [21.060847, 52.308133], [21.061343, 52.308208], [21.061455, 52.308317], [21.062015, 52.308385], [21.062071, 52.308226], [21.061998, 52.308155], [21.06229, 52.307336], [21.06701, 52.307739], [21.083428, 52.307771], [21.082828, 52.309056], [21.082669, 52.309787], [21.08202, 52.311337], [21.082006, 52.311427], [21.08212, 52.311436], [21.077784, 52.321966], [21.089516, 52.323766], [21.087737, 52.328219], [21.086041, 52.331974], [21.087765, 52.332299], [21.087516, 52.332863], [21.086677, 52.33274], [21.085996, 52.334027], [21.085729, 52.334601], [21.085202, 52.337403], [21.082453, 52.33735], [21.081535, 52.340925], [21.080879, 52.343125], [21.085897, 52.343513], [21.0817, 52.35414], [21.07866, 52.353663], [21.076235, 52.359301], [21.077107, 52.359439], [21.073809, 52.367288], [21.065979, 52.36601], [21.066035, 52.36618], [21.063705, 52.365586], [21.061263, 52.365825], [21.060649, 52.36255], [21.05397, 52.363064], [21.049218, 52.361699], [21.048629, 52.363626], [21.044568, 52.364001], [21.040844, 52.362823], [21.030674, 52.361604], [21.027575, 52.365129], [21.02667, 52.364528], [21.025492, 52.363574], [21.025252, 52.363249], [21.025163, 52.362329], [21.025213, 52.361856], [21.024863, 52.360904], [21.024182, 52.359882], [21.02394, 52.358931], [21.023612, 52.358463], [21.023403, 52.357864], [21.023345, 52.357408], [21.022515, 52.357136], [21.021017, 52.356491], [21.020689, 52.356955], [21.013416, 52.35608], [21.013486, 52.356505], [21.013327, 52.356867], [21.011667, 52.356781], [21.009488, 52.356796], [21.008779, 52.357034], [21.008069, 52.35825], [21.008221, 52.360163], [21.007939, 52.36069], [21.005665, 52.364104], [21.003228, 52.363659], [21.002135, 52.363592], [20.999979, 52.363286], [20.999413, 52.363155], [20.99859, 52.362663], [20.996374, 52.362098], [20.994668, 52.361829], [20.991934, 52.362774], [20.97813, 52.358979], [20.971273, 52.358981], [20.966102, 52.368153], [20.954236, 52.367861], [20.954259, 52.367679], [20.953534, 52.367763], [20.953221, 52.367607], [20.952986, 52.367261], [20.952779, 52.36667], [20.952523, 52.366434], [20.951738, 52.366492], [20.949803, 52.366397], [20.944891, 52.366697], [20.945161, 52.366219], [20.943988, 52.365975], [20.943621, 52.36636], [20.940953, 52.363773], [20.93929, 52.36177], [20.935478, 52.363], [20.935088, 52.36324], [20.939195, 52.358356], [20.938499, 52.358114], [20.93592, 52.35891], [20.933973, 52.359768], [20.933093, 52.359167], [20.932901, 52.359193], [20.930927, 52.357937], [20.929269, 52.358941], [20.927491, 52.359468], [20.926343, 52.359627], [20.924082, 52.359578], [20.922972, 52.357041], [20.915136, 52.35403]]]]}}, {"type": "Feature", "properties": {"name": "Bielany", "slug": "bielany", "osm_relation": 2531981, "in": {"en": "in Bielany", "pl": "na Bielanach"}}, "geometry": {"type": "MultiPolygon", "coordinates": [[[[20.875683, 52.314852], [20.878159, 52.314084], [20.879413, 52.313796], [20.883404, 52.313548], [20.886909, 52.3132], [20.888434, 52.313238], [20.889789, 52.31364], [20.889671, 52.314054], [20.890356, 52.315596], [20.891479, 52.317625], [20.894953, 52.321269], [20.895227, 52.321438], [20.896036, 52.321684], [20.899556, 52.322197], [20.902956, 52.322468], [20.906624, 52.323357], [20.90709, 52.322121], [20.907769, 52.322226], [20.90896, 52.322659], [20.910237, 52.323972], [20.910549, 52.324096], [20.91307, 52.321838], [20.922058, 52.323735], [20.922246, 52.324369], [20.922585, 52.326754], [20.925123, 52.32943], [20.925016, 52.328026], [20.925209, 52.326639], [20.925731, 52.32475], [20.926579, 52.323079], [20.927782, 52.321358], [20.929422, 52.319587], [20.931033, 52.318201], [20.934719, 52.315997], [20.937339, 52.314744], [20.942087, 52.313159], [20.944106, 52.312374], [20.945716, 52.311623], [20.94749, 52.310654], [20.951638, 52.307784], [20.953294, 52.306003], [20.95485, 52.303779], [20.955709, 52.302798], [20.956935, 52.301739], [20.95876, 52.300548], [20.960927, 52.299357], [20.963185, 52.298299], [20.965509, 52.297371], [20.968357, 52.296429], [20.970467, 52.295852], [20.973072, 52.295268], [20.978879, 52.294336], [20.981119, 52.293894], [20.984053, 52.293155], [20.986568, 52.29236], [20.989359, 52.291281], [20.991246, 52.290414], [20.993719, 52.289074], [20.995762, 52.287751], [20.990034, 52.285136], [20.989593, 52.285465], [20.98662, 52.286394], [20.985471, 52.285691], [20.985764, 52.284913], [20.985611, 52.283798], [20.985405, 52.283522], [20.98517, 52.283377], [20.976832, 52.279515], [20.976562, 52.27907], [20.971887, 52.276627], [20.970717, 52.275814], [20.970639, 52.275848], [20.970223, 52.275477], [20.967189, 52.274175], [20.966839, 52.274189], [20.966228, 52.274443], [20.965408, 52.273889], [20.964944, 52.274116], [20.964407, 52.273737], [20.964219, 52.273165], [20.962971, 52.271318], [20.962745, 52.271376], [20.962143, 52.27071], [20.961769, 52.270553], [20.959159, 52.268511], [20.958688, 52.268414], [20.957537, 52.267277], [20.957595, 52.267121], [20.95755, 52.266928], [20.955172, 52.26479], [20.95477, 52.264613], [20.9543, 52.26419], [20.953509, 52.263728], [20.951944, 52.262261], [20.950881, 52.262921], [20.949686, 52.263287], [20.943922, 52.264839], [20.943711, 52.264581], [20.942942, 52.264781], [20.943036, 52.264922], [20.942643, 52.265213], [20.942029, 52.26614], [20.939703, 52.266887], [20.937171, 52.267464], [20.931446, 52.268531], [20.926857, 52.269576], [20.920148, 52.270832], [20.916716, 52.271625], [20.916448, 52.271892], [20.901749, 52.275332], [20.893425, 52.27717], [20.893469, 52.277239], [20.892795, 52.27749], [20.890552, 52.27894], [20.889925, 52.279451], [20.889132, 52.280482], [20.887865, 52.279986], [20.885863, 52.280433], [20.885641, 52.28004], [20.884911, 52.279299], [20.88455, 52.279127], [20.884041, 52.27906], [20.881154, 52.279514], [20.881171, 52.279607], [20.875756, 52.280488], [20.876364, 52.286644], [20.876385, 52.28718], [20.87632, 52.287226], [20.876436, 52.287389], [20.877143, 52.294553], [20.876559, 52.296544], [20.876662, 52.297506], [20.876569, 52.297936], [20.875795, 52.298658], [20.879635, 52.308255], [20.880469, 52.309169], [20.879603, 52.310261], [20.879251, 52.311061], [20.878329, 52.312055], [20.875438, 52.314101], [20.875683, 52.314852]]]]}}, {"type": "Feature", "properties": {"name": "Mokotów", "slug": "mokotow", "osm_relation": 2536106, "in": {"en": "in Mokotów", "pl": "na Mokotowie"}}, "geometry": {"type": "MultiPolygon", "coordinates": [[[[20.981922, 52.192758], [20.983138, 52.192476], [20.984589, 52.191732], [20.985253, 52.191238], [20.986042, 52.19034], [20.986143, 52.19032], [20.986541, 52.189397], [20.986622, 52.188764], [20.986922, 52.177893], [20.986977, 52.17235], [20.986876, 52.171434], [20.987019, 52.171068], [20.987633, 52.170761], [20.987774, 52.170594], [20.987788, 52.170398], [20.98817, 52.170412], [20.988161, 52.170735], [20.988586, 52.17137], [20.994066, 52.170096], [20.996872, 52.169299], [20.99757, 52.169419], [20.997979, 52.169389], [21.008214, 52.167009], [21.008748, 52.167835], [21.010115, 52.167346], [21.011614, 52.166961], [21.011843, 52.166682], [21.012296, 52.165519], [21.015856, 52.165652], [21.015865, 52.16483], [21.016563, 52.164837], [21.016843, 52.164919], [21.01693, 52.164775], [21.018457, 52.164279], [21.020003, 52.16626], [21.019566, 52.167046], [21.020839, 52.166712], [21.021664, 52.166601], [21.024449, 52.166528], [21.024486, 52.166915], [21.025005, 52.167266], [21.025893, 52.167308], [21.025887, 52.16768], [21.026229, 52.167712], [21.027464, 52.167665], [21.028246, 52.167529], [21.029099, 52.167226], [21.029933, 52.166765], [21.031305, 52.16699], [21.033115, 52.167455], [21.035958, 52.168246], [21.037432, 52.168752], [21.038848, 52.169487], [21.039535, 52.169977], [21.042637, 52.17264], [21.043032, 52.173204], [21.043303, 52.173952], [21.04348, 52.174877], [21.043311, 52.174985], [21.045992, 52.174381], [21.046022, 52.174283], [21.046702, 52.1738], [21.051208, 52.171395], [21.054105, 52.169483], [21.057497, 52.169741], [21.058998, 52.169971], [21.059787, 52.170186], [21.061781, 52.170219], [21.063594, 52.170081], [21.066066, 52.169754], [21.067358, 52.169769], [21.067952, 52.169631], [21.068087, 52.169818], [21.068613, 52.170206], [21.067797, 52.170832], [21.063066, 52.175323], [21.065132, 52.176095], [21.065681, 52.175547], [21.065786, 52.175529], [21.069093, 52.176724], [21.069445, 52.176952], [21.069984, 52.177567], [21.070738, 52.177786], [21.071765, 52.178407], [21.071772, 52.178493], [21.071954, 52.178603], [21.072127, 52.178494], [21.072367, 52.178633], [21.07264, 52.179088], [21.072658, 52.179325], [21.074103, 52.180191], [21.074161, 52.180331], [21.077488, 52.182319], [21.077407, 52.18237], [21.081047, 52.184551], [21.081238, 52.184601], [21.085358, 52.182941], [21.08915, 52.181299], [21.089382, 52.1811], [21.089279, 52.18082], [21.089702, 52.180623], [21.094758, 52.180965], [21.094258, 52.181931], [21.094179, 52.182602], [21.095085, 52.185192], [21.095408, 52.185631], [21.096098, 52.18604], [21.096685, 52.186198], [21.097521, 52.186291], [21.098201, 52.186542], [21.098582, 52.186817], [21.099055, 52.187332], [21.099314, 52.187822], [21.099611, 52.189141], [21.099551, 52.189572], [21.099141, 52.190379], [21.099218, 52.190805], [21.099415, 52.191186], [21.099867, 52.191618], [21.100956, 52.192208], [21.102664, 52.192646], [21.10291, 52.192895], [21.103393, 52.193636], [21.104912, 52.194522], [21.104827, 52.196623], [21.104661, 52.197703], [21.104715, 52.201577], [21.104089, 52.204073], [21.103477, 52.205564], [21.102515, 52.207362], [21.100762, 52.20969], [21.099168, 52.211223], [21.095246, 52.213775], [21.093133, 52.214871], [21.091773, 52.215476], [21.089141, 52.216465], [21.086628, 52.217208], [21.083559, 52.217884], [21.080787, 52.218299], [21.078773, 52.218492], [21.076335, 52.218609], [21.068591, 52.21846], [21.066055, 52.21862], [21.063564, 52.218946], [21.061522, 52.216805], [21.061288, 52.216673], [21.054012, 52.215549], [21.054313, 52.214796], [21.049409, 52.214055], [21.049125, 52.21479], [21.046403, 52.214363], [21.04736, 52.21137], [21.045062, 52.210174], [21.04494, 52.209858], [21.044661, 52.209688], [21.03627, 52.209586], [21.034882, 52.206862], [21.032606, 52.206994], [21.030245, 52.206815], [21.029401, 52.206933], [21.028584, 52.207211], [21.025897, 52.209264], [21.02548, 52.209766], [21.024863, 52.211022], [21.024498, 52.211434], [21.022019, 52.213123], [21.02141, 52.212942], [21.02074, 52.213316], [21.018226, 52.212814], [21.01659, 52.212301], [20.998287, 52.209157], [20.987922, 52.210279], [20.981922, 52.192758]]]]}}, {"type": "Feature", "properties": {"name": "Ochota", "slug": "ochota", "osm_relation": 2534033, "in": {"en": "in Ochota", "pl": "na Ochocie"}}, "geometry": {"type": "MultiPolygon", "coordinates": [[[[20.935932, 52.21215], [20.937635, 52.212598], [20.938152, 52.212339], [20.940862, 52.213334], [20.942284, 52.213978], [20.943222, 52.214281], [20.94453, 52.214569], [20.944924, 52.214615], [20.94846, 52.214374], [20.95083, 52.214327], [20.952788, 52.214364], [20.954008, 52.214517], [20.955445, 52.215029], [20.956536, 52.21568], [20.957392, 52.216678], [20.958939, 52.217795], [20.959057, 52.217802], [20.958883, 52.218153], [20.963219, 52.218815], [20.96389, 52.218971], [20.964713, 52.219292], [20.968135, 52.220073], [20.968219, 52.219919], [20.968638, 52.219593], [20.970787, 52.220357], [20.970525, 52.220713], [20.97188, 52.221], [20.975707, 52.22214], [20.9764, 52.222025], [20.976626, 52.222258], [20.97723, 52.222321], [20.977915, 52.222616], [20.979399, 52.222977], [20.979354, 52.223053], [20.980444, 52.223292], [20.980418, 52.223341], [20.987686, 52.224875], [20.989161, 52.225374], [20.989998, 52.225554], [20.990292, 52.225507], [20.991076, 52.225633], [21.001641, 52.22798], [21.004706, 52.223119], [21.004952, 52.217243], [21.006988, 52.210652], [20.998287, 52.209157], [20.987922, 52.210279], [20.981922, 52.192758], [20.971257, 52.195379], [20.948973, 52.200503], [20.947225, 52.200942], [20.946333, 52.201258], [20.945187, 52.201812], [20.944403, 52.202383], [20.943925, 52.202866], [20.943609, 52.202768], [20.942894, 52.203519], [20.942827, 52.203675], [20.942548, 52.203705], [20.941906, 52.204297], [20.942058, 52.204383], [20.938112, 52.208206], [20.9372, 52.208858], [20.936515, 52.210894], [20.936731, 52.210919], [20.937087, 52.211721], [20.937382, 52.212135], [20.935932, 52.21215]]]]}}, {"type": "Feature", "properties": {"name": "Praga-Północ", "slug": "praga-polnoc", "osm_relation": 2553341, "in": {"en": "in Praga-Północ", "pl": "na Pradze-Północ"}}, "geometry": {"type": "MultiPolygon", "coordinates": [[[[20.995762, 52.287751], [20.997643, 52.286308], [20.999051, 52.285027], [21.000152, 52.283865], [21.001603, 52.282014], [21.002909, 52.27981], [21.003655, 52.277987], [21.004059, 52.276546], [21.004361, 52.274536], [21.004578, 52.271678], [21.004924, 52.269937], [21.005401, 52.268307], [21.006264, 52.266158], [21.006895, 52.264913], [21.007767, 52.263433], [21.008591, 52.262417], [21.010848, 52.26003], [21.013968, 52.25614], [21.01855, 52.251212], [21.021021, 52.248881], [21.021875, 52.248194], [21.023789, 52.246905], [21.029301, 52.243837], [21.031244, 52.242631], [21.034376, 52.240508], [21.03685, 52.238599], [21.040478, 52.240491], [21.04053, 52.240451], [21.040909, 52.240644], [21.040848, 52.240877], [21.041736, 52.241339], [21.042344, 52.241814], [21.042876, 52.242391], [21.043286, 52.243039], [21.043643, 52.242984], [21.043714, 52.243159], [21.043356, 52.243212], [21.043452, 52.246055], [21.043396, 52.246218], [21.043461, 52.246219], [21.04346, 52.246971], [21.043563, 52.247558], [21.043802, 52.247572], [21.043909, 52.247926], [21.043745, 52.247952], [21.044203, 52.248622], [21.044356, 52.248569], [21.044909, 52.249002], [21.044887, 52.249094], [21.045748, 52.249655], [21.050737, 52.251694], [21.052802, 52.252343], [21.053113, 52.252502], [21.055067, 52.252978], [21.055113, 52.252923], [21.056032, 52.253242], [21.057825, 52.25404], [21.059105, 52.254433], [21.062202, 52.255599], [21.063161, 52.256007], [21.063175, 52.256086], [21.06523, 52.257497], [21.066643, 52.257851], [21.069545, 52.25817], [21.069811, 52.258302], [21.070446, 52.258302], [21.073264, 52.258582], [21.074211, 52.259026], [21.073972, 52.258977], [21.073381, 52.259064], [21.06746, 52.260425], [21.060166, 52.26236], [21.056415, 52.263433], [21.056027, 52.263492], [21.055571, 52.263323], [21.054695, 52.263554], [21.054814, 52.263634], [21.04951, 52.264992], [21.04394, 52.266667], [21.038654, 52.267983], [21.038529, 52.267938], [21.038272, 52.268005], [21.038221, 52.268123], [21.037969, 52.26826], [21.037886, 52.268197], [21.036603, 52.268648], [21.032726, 52.270525], [21.031937, 52.270806], [21.028242, 52.271395], [21.02712, 52.271769], [21.026571, 52.272054], [21.025762, 52.272609], [21.024742, 52.273811], [21.023135, 52.276568], [21.021132, 52.279779], [21.020481, 52.281125], [21.015612, 52.289507], [21.014586, 52.29175], [21.013845, 52.293168], [21.014029, 52.293202], [21.013755, 52.293844], [21.013125, 52.294851], [21.012423, 52.294027], [21.0115, 52.293552], [21.005853, 52.291767], [21.004731, 52.291623], [21.004395, 52.292021], [21.002987, 52.29137], [21.002827, 52.291379], [21.002152, 52.292049], [21.001737, 52.292197], [21.001595, 52.292333], [21.001605, 52.292423], [21.001448, 52.292474], [21.000584, 52.2933], [20.9992, 52.293156], [20.998887, 52.293024], [20.999077, 52.29282], [20.998341, 52.292139], [20.998825, 52.291739], [20.998795, 52.290337], [20.997107, 52.289429], [20.997125, 52.289058], [20.997009, 52.28871], [20.997346, 52.288474], [20.995762, 52.287751]]]]}}, {"type": "Feature", "properties": {"name": "Praga-Południe", "slug": "praga-poludnie", "osm_relation": 2544288, "in": {"en": "in Praga-Południe", "pl": "na Pradze-Południe"}}, "geometry": {"type": "MultiPolygon", "coordinates": [[[[21.03685, 52.238599], [21.038525, 52.237197], [21.040102, 52.235744], [21.042333, 52.233498], [21.044381, 52.231129], [21.046494, 52.228454], [21.047656, 52.227155], [21.049952, 52.224876], [21.051422, 52.223686], [21.052765, 52.222784], [21.054642, 52.221742], [21.056302, 52.220984], [21.058459, 52.220183], [21.060682, 52.219541], [21.063124, 52.21902], [21.065336, 52.218696], [21.067501, 52.218508], [21.069323, 52.218445], [21.074297, 52.21861], [21.07715, 52.218584], [21.079984, 52.218387], [21.082774, 52.21802], [21.085109, 52.217573], [21.087733, 52.216904], [21.090171, 52.216106], [21.092394, 52.215206], [21.096161, 52.21738], [21.096523, 52.218053], [21.09704, 52.218448], [21.097363, 52.218289], [21.119377, 52.232419], [21.124564, 52.232472], [21.12617, 52.232779], [21.12738, 52.233333], [21.127714, 52.233626], [21.127923, 52.234259], [21.127881, 52.234385], [21.128373, 52.234861], [21.12839, 52.234961], [21.13264, 52.239059], [21.130882, 52.239884], [21.13107, 52.240301], [21.130305, 52.240675], [21.131678, 52.241709], [21.132331, 52.243139], [21.132289, 52.243344], [21.121257, 52.252012], [21.121001, 52.252142], [21.118478, 52.254117], [21.114744, 52.256797], [21.114884, 52.256848], [21.115071, 52.257332], [21.115193, 52.259445], [21.088733, 52.260556], [21.083008, 52.260128], [21.082996, 52.260184], [21.082555, 52.260172], [21.082372, 52.260158], [21.08239, 52.260076], [21.07941, 52.259823], [21.075811, 52.259301], [21.075887, 52.259147], [21.074211, 52.259026], [21.073264, 52.258582], [21.070446, 52.258302], [21.069811, 52.258302], [21.069545, 52.25817], [21.066036, 52.25774], [21.06523, 52.257497], [21.063175, 52.256086], [21.063161, 52.256007], [21.062202, 52.255599], [21.059105, 52.254433], [21.057825, 52.25404], [21.056032, 52.253242], [21.055113, 52.252923], [21.055067, 52.252978], [21.053113, 52.252502], [21.052802, 52.252343], [21.050737, 52.251694], [21.046453, 52.249962], [21.045212, 52.249325], [21.044356, 52.248569], [21.044203, 52.248622], [21.043745, 52.247952], [21.043909, 52.247926], [21.043802, 52.247572], [21.043563, 52.247558], [21.04346, 52.246971], [21.043461, 52.246219], [21.043396, 52.246218], [21.043452, 52.246055], [21.043356, 52.243212], [21.043714, 52.243159], [21.043643, 52.242984], [21.043286, 52.243039], [21.042876, 52.242391], [21.042344, 52.241814], [21.041736, 52.241339], [21.040848, 52.240877], [21.040909, 52.240644], [21.04053, 52.240451], [21.040478, 52.240491], [21.03685, 52.238599]]]]}}, {"type": "Feature", "properties": {"name": "Rembertów", "slug": "rembertow", "osm_relation": 2579781, "in": {"en": "in Rembertów", "pl": "w Rembertowie"}}, "geometry": {"type": "MultiPolygon", "coordinates": [[[[21.107875, 52.274346], [21.14905, 52.279353], [21.150745, 52.280613], [21.151558, 52.281458], [21.154256, 52.282766], [21.155622, 52.283699], [21.159715, 52.284771], [21.160587, 52.285126], [21.161492, 52.285679], [21.161427, 52.285744], [21.162195, 52.286633], [21.163198, 52.28842], [21.164319, 52.289715], [21.165154, 52.290229], [21.16652, 52.290632], [21.169216, 52.291106], [21.171466, 52.28925], [21.172225, 52.28678], [21.17245, 52.28676], [21.171183, 52.277321], [21.170671, 52.276967], [21.175347, 52.272946], [21.176859, 52.271835], [21.178944, 52.270635], [21.182987, 52.268514], [21.183524, 52.268139], [21.183991, 52.267787], [21.184395, 52.267337], [21.184741, 52.266813], [21.184983, 52.26625], [21.185089, 52.265157], [21.184559, 52.261182], [21.184289, 52.259921], [21.183895, 52.259174], [21.183231, 52.258442], [21.182337, 52.2578], [21.181179, 52.257237], [21.179344, 52.256702], [21.190483, 52.256175], [21.190693, 52.255314], [21.191339, 52.24993], [21.19039, 52.249661], [21.188891, 52.252298], [21.186956, 52.251773], [21.186971, 52.250399], [21.182907, 52.249506], [21.184438, 52.246935], [21.184199, 52.246781], [21.184437, 52.246605], [21.18418, 52.246448], [21.184104, 52.246316], [21.181058, 52.245717], [21.17678, 52.245205], [21.176677, 52.245035], [21.176434, 52.245137], [21.173388, 52.243491], [21.163613, 52.24157], [21.163202, 52.24236], [21.162226, 52.242209], [21.161711, 52.243024], [21.156435, 52.241979], [21.155556, 52.241953], [21.15327, 52.241367], [21.141764, 52.239079], [21.139446, 52.243214], [21.138191, 52.243166], [21.137425, 52.242771], [21.135659, 52.241464], [21.134108, 52.240225], [21.133459, 52.239609], [21.133133, 52.239495], [21.13264, 52.239059], [21.130882, 52.239884], [21.13107, 52.240301], [21.130305, 52.240675], [21.131678, 52.241709], [21.132331, 52.243139], [21.132289, 52.243344], [21.121257, 52.252012], [21.121001, 52.252142], [21.118478, 52.254117], [21.114744, 52.256797], [21.114884, 52.256848], [21.115071, 52.257332], [21.115193, 52.259445], [21.11077, 52.259648], [21.108096, 52.267814], [21.108, 52.2678], [21.107845, 52.268278], [21.10904, 52.268424], [21.108737, 52.270408], [21.109741, 52.270658], [21.107875, 52.274346]]]]}}, {"type": "Feature", "properties": {"name": "Śródmieście", "slug": "srodmiescie", "osm_relation": 2534036, "in": {"en": "in Śródmieście", "pl": "w Śródmieściu"}}, "geometry": {"type": "MultiPolygon", "coordinates": [[[[20.981027, 52.259436], [20.981657, 52.256957], [20.982644, 52.25457], [20.995423, 52.239693], [20.998179, 52.233211], [21.000006, 52.230527], [21.004706, 52.223119], [21.004952, 52.217243], [21.006988, 52.210652], [21.01659, 52.212301], [21.018226, 52.212814], [21.02074, 52.213316], [21.02141, 52.212942], [21.022019, 52.213123], [21.024498, 52.211434], [21.024863, 52.211022], [21.02548, 52.209766], [21.025897, 52.209264], [21.028584, 52.207211], [21.029401, 52.206933], [21.030245, 52.206815], [21.032606, 52.206994], [21.034882, 52.206862], [21.03627, 52.209586], [21.044661, 52.209688], [21.04494, 52.209858], [21.045062, 52.210174], [21.04736, 52.21137], [21.046403, 52.214363], [21.049125, 52.21479], [21.049409, 52.214055], [21.054313, 52.214796], [21.054012, 52.215549], [21.061288, 52.216673], [21.061522, 52.216805], [21.063564, 52.218946], [21.060205, 52.219664], [21.058459, 52.220183], [21.056679, 52.22083], [21.055047, 52.221544], [21.053517, 52.22234], [21.052103, 52.22321], [21.050865, 52.224108], [21.049384, 52.225404], [21.047656, 52.227155], [21.046494, 52.228454], [21.044381, 52.231129], [21.042333, 52.233498], [21.040102, 52.235744], [21.038525, 52.237197], [21.03685, 52.238599], [21.034376, 52.240508], [21.031244, 52.242631], [21.029301, 52.243837], [21.023129, 52.247316], [21.021875, 52.248194], [21.019676, 52.250091], [21.01855, 52.251212], [21.013968, 52.25614], [21.010848, 52.26003], [21.009642, 52.261287], [21.006616, 52.26026], [21.006542, 52.260355], [21.00592, 52.260163], [21.005837, 52.260264], [21.005742, 52.260256], [21.005619, 52.260216], [21.005383, 52.259887], [21.003534, 52.259357], [21.000107, 52.259055], [20.999552, 52.259092], [20.99917, 52.259395], [20.997471, 52.25943], [20.997466, 52.259335], [20.990215, 52.259489], [20.990219, 52.259541], [20.986623, 52.259637], [20.986626, 52.259762], [20.981605, 52.259601], [20.981027, 52.259436]]]]}}, {"type": "Feature", "properties": {"name": "Targówek", "slug": "targowek", "osm_relation": 2556630, "in": {"en": "in Targówek", "pl": "na Targówku"}}, "geometry": {"type": "MultiPolygon", "coordinates": [[[[21.013125, 52.294851], [21.012585, 52.295721], [21.013065, 52.295854], [21.013254, 52.296636], [21.013023, 52.297487], [21.014612, 52.297937], [21.01503, 52.297382], [21.016008, 52.296615], [21.017129, 52.296915], [21.017992, 52.295904], [21.023085, 52.297674], [21.023185, 52.297831], [21.022737, 52.298566], [21.023578, 52.298837], [21.02414, 52.298238], [21.024319, 52.298212], [21.027026, 52.298796], [21.02812, 52.299141], [21.028157, 52.299075], [21.031128, 52.299881], [21.031112, 52.300269], [21.030899, 52.300638], [21.032259, 52.300993], [21.032716, 52.300391], [21.032913, 52.300343], [21.03555, 52.301082], [21.041162, 52.302402], [21.051752, 52.305084], [21.051703, 52.304864], [21.057321, 52.306281], [21.060377, 52.306938], [21.060589, 52.307071], [21.061247, 52.308062], [21.060874, 52.308047], [21.060847, 52.308133], [21.061343, 52.308208], [21.061455, 52.308317], [21.062015, 52.308385], [21.062071, 52.308226], [21.061998, 52.308155], [21.06229, 52.307336], [21.06701, 52.307739], [21.083428, 52.307771], [21.085513, 52.303248], [21.08357, 52.302855], [21.087574, 52.295514], [21.087796, 52.295557], [21.095201, 52.288161], [21.094917, 52.288097], [21.095837, 52.28626], [21.098091, 52.286142], [21.098925, 52.286485], [21.100283, 52.284784], [21.100524, 52.284093], [21.105009, 52.273995], [21.107875, 52.274346], [21.109741, 52.270658], [21.108737, 52.270408], [21.10904, 52.268424], [21.107845, 52.268278], [21.108, 52.2678], [21.108096, 52.267814], [21.11077, 52.259648], [21.088733, 52.260556], [21.083008, 52.260128], [21.082996, 52.260184], [21.082372, 52.260158], [21.08239, 52.260076], [21.07941, 52.259823], [21.076563, 52.259437], [21.075811, 52.259301], [21.075887, 52.259147], [21.073972, 52.258977], [21.06746, 52.260425], [21.060166, 52.26236], [21.056415, 52.263433], [21.056027, 52.263492], [21.055571, 52.263323], [21.054695, 52.263554], [21.054814, 52.263634], [21.04951, 52.264992], [21.04394, 52.266667], [21.038654, 52.267983], [21.038529, 52.267938], [21.038272, 52.268005], [21.038221, 52.268123], [21.037969, 52.26826], [21.037886, 52.268197], [21.036603, 52.268648], [21.032726, 52.270525], [21.031937, 52.270806], [21.030918, 52.271016], [21.028475, 52.271343], [21.027522, 52.271613], [21.026571, 52.272054], [21.025762, 52.272609], [21.024742, 52.273811], [21.023135, 52.276568], [21.021132, 52.279779], [21.020481, 52.281125], [21.015612, 52.289507], [21.014586, 52.29175], [21.013845, 52.293168], [21.014029, 52.293202], [21.013755, 52.293844], [21.013125, 52.294851]]]]}}, {"type": "Feature", "properties": {"name": "Ursus", "slug": "ursus", "osm_relation": 2534034, "in": {"en": "in Ursus", "pl": "w Ursusie"}}, "geometry": {"type": "MultiPolygon", "coordinates": [[[[20.851917, 52.199717], [20.853045, 52.197256], [20.853309, 52.19724], [20.853065, 52.197195], [20.854105, 52.194925], [20.856185, 52.192106], [20.856513, 52.192066], [20.856792, 52.191837], [20.856471, 52.191697], [20.856713, 52.191236], [20.856954, 52.190406], [20.856906, 52.189529], [20.856599, 52.188667], [20.85601, 52.18783], [20.856089, 52.187641], [20.859468, 52.188589], [20.861635, 52.189305], [20.86172, 52.189219], [20.864708, 52.189969], [20.864684, 52.190199], [20.86538, 52.190424], [20.865326, 52.190173], [20.867136, 52.190778], [20.867102, 52.186609], [20.867166, 52.182497], [20.869332, 52.182565], [20.874202, 52.182336], [20.879412, 52.182553], [20.881986, 52.182471], [20.885559, 52.182567], [20.893403, 52.182536], [20.895084, 52.182611], [20.895668, 52.182594], [20.895619, 52.182539], [20.897726, 52.182541], [20.899274, 52.18413], [20.901504, 52.184426], [20.902664, 52.184019], [20.903906, 52.183966], [20.903972, 52.184115], [20.909042, 52.184543], [20.909209, 52.185859], [20.911237, 52.18578], [20.91477, 52.185842], [20.91611, 52.187883], [20.916821, 52.189488], [20.9192, 52.193762], [20.91577, 52.192751], [20.915382, 52.192733], [20.912126, 52.19428], [20.910453, 52.1957], [20.910542, 52.195975], [20.908182, 52.196789], [20.9063, 52.197604], [20.90318, 52.198326], [20.902254, 52.198683], [20.900674, 52.199519], [20.899968, 52.200047], [20.900143, 52.201707], [20.897948, 52.202301], [20.896723, 52.202722], [20.88106, 52.209006], [20.878324, 52.209239], [20.878221, 52.209321], [20.878582, 52.20955], [20.876838, 52.209582], [20.872753, 52.209123], [20.872777, 52.208998], [20.871001, 52.208906], [20.865805, 52.208307], [20.864618, 52.208151], [20.864652, 52.208057], [20.862685, 52.20782], [20.862654, 52.207913], [20.861089, 52.207721], [20.858724, 52.207263], [20.856791, 52.206681], [20.855591, 52.206144], [20.854554, 52.205539], [20.853631, 52.204835], [20.852917, 52.204101], [20.853319, 52.204079], [20.853335, 52.203993], [20.852765, 52.203925], [20.852591, 52.203691], [20.852103, 52.202863], [20.851688, 52.200977], [20.851882, 52.199832], [20.852163, 52.199792], [20.852158, 52.199721], [20.851917, 52.199717]]]]}}, {"type": "Feature", "properties": {"name": "Ursynów", "slug": "ursynow", "osm_relation": 2536107, "in": {"en": "in Ursynów", "pl": "na Ursynowie"}}, "geometry": {"type": "MultiPolygon", "coordinates": [[[[20.979977, 52.129435], [20.97989, 52.128075], [20.98018, 52.127634], [20.980182, 52.127342], [20.98126, 52.126058], [20.982984, 52.123784], [20.989043, 52.123646], [20.985074, 52.120442], [20.985103, 52.120234], [20.987297, 52.115732], [20.98711, 52.115616], [20.984524, 52.112743], [20.983797, 52.111877], [20.983724, 52.11169], [20.984584, 52.110969], [20.986695, 52.110561], [20.986466, 52.109925], [20.984479, 52.10562], [20.98736, 52.105139], [20.986859, 52.103903], [20.991599, 52.103114], [20.991857, 52.103165], [20.991923, 52.103458], [21.018685, 52.103718], [21.018642, 52.106048], [21.035503, 52.10619], [21.035798, 52.10644], [21.035199, 52.106765], [21.037086, 52.108123], [21.037394, 52.108116], [21.038076, 52.108361], [21.037967, 52.108548], [21.0384, 52.108985], [21.042008, 52.111316], [21.041841, 52.111429], [21.04204, 52.111895], [21.043715, 52.112963], [21.04462, 52.112676], [21.046102, 52.111985], [21.047391, 52.111189], [21.048337, 52.110705], [21.048661, 52.11026], [21.050453, 52.109153], [21.052508, 52.108407], [21.056191, 52.107645], [21.056529, 52.107725], [21.058038, 52.107205], [21.062325, 52.105423], [21.064016, 52.104516], [21.065715, 52.103905], [21.069173, 52.102272], [21.07421, 52.10036], [21.07592, 52.099523], [21.076794, 52.099219], [21.078307, 52.098291], [21.078753, 52.098118], [21.079978, 52.097909], [21.079975, 52.09785], [21.082377, 52.098526], [21.082646, 52.09868], [21.083613, 52.099594], [21.085045, 52.101522], [21.08663, 52.102821], [21.087485, 52.1033], [21.089332, 52.103946], [21.091892, 52.104644], [21.094177, 52.104481], [21.095962, 52.10455], [21.100121, 52.105179], [21.101556, 52.105685], [21.103537, 52.105756], [21.102172, 52.107273], [21.101583, 52.107685], [21.101829, 52.107816], [21.100908, 52.108138], [21.100251, 52.108091], [21.099769, 52.108217], [21.099365, 52.108362], [21.098942, 52.108753], [21.098348, 52.108747], [21.098248, 52.108941], [21.098519, 52.109065], [21.098001, 52.109474], [21.097203, 52.110593], [21.096569, 52.110565], [21.096496, 52.110702], [21.096853, 52.110963], [21.096724, 52.11123], [21.096532, 52.111381], [21.096146, 52.111404], [21.095994, 52.111807], [21.096329, 52.111883], [21.096226, 52.112152], [21.095693, 52.113113], [21.095083, 52.113762], [21.094249, 52.113976], [21.092466, 52.114149], [21.090132, 52.114197], [21.088358, 52.114513], [21.08651, 52.11446], [21.086571, 52.114812], [21.087183, 52.114906], [21.089128, 52.114886], [21.09157, 52.114741], [21.092174, 52.114899], [21.093494, 52.114508], [21.093748, 52.1146], [21.094201, 52.11461], [21.094216, 52.114741], [21.093501, 52.115646], [21.092496, 52.116656], [21.091883, 52.116728], [21.092092, 52.116927], [21.092073, 52.117096], [21.091877, 52.117073], [21.091799, 52.117585], [21.091711, 52.117651], [21.090762, 52.117621], [21.090809, 52.117354], [21.089935, 52.117511], [21.089584, 52.117485], [21.08929, 52.117762], [21.089042, 52.117864], [21.08878, 52.117779], [21.087648, 52.117708], [21.087036, 52.117547], [21.087038, 52.117696], [21.087692, 52.117934], [21.0887, 52.118131], [21.088061, 52.118465], [21.088041, 52.118774], [21.087631, 52.11894], [21.087203, 52.118971], [21.086887, 52.119384], [21.086585, 52.11951], [21.086443, 52.119737], [21.086591, 52.119776], [21.087383, 52.119427], [21.08789, 52.119002], [21.088284, 52.118873], [21.088593, 52.11853], [21.089074, 52.118227], [21.090125, 52.118185], [21.089805, 52.118397], [21.089697, 52.118618], [21.089744, 52.118908], [21.089183, 52.119646], [21.089372, 52.119771], [21.090071, 52.119159], [21.090152, 52.118826], [21.090355, 52.118555], [21.090783, 52.118427], [21.091725, 52.118422], [21.091591, 52.118803], [21.090941, 52.119861], [21.088789, 52.120226], [21.088665, 52.120446], [21.088673, 52.120595], [21.090164, 52.120421], [21.090448, 52.120533], [21.090208, 52.121128], [21.088809, 52.1226], [21.088557, 52.122729], [21.088591, 52.122919], [21.088445, 52.123102], [21.087241, 52.123067], [21.087177, 52.123323], [21.0874, 52.12359], [21.087722, 52.123647], [21.087414, 52.124064], [21.087024, 52.124128], [21.086679, 52.124419], [21.086368, 52.124525], [21.085552, 52.124508], [21.084611, 52.124832], [21.084186, 52.124865], [21.084818, 52.124885], [21.085651, 52.12474], [21.086644, 52.124933], [21.086661, 52.125014], [21.086429, 52.12512], [21.086634, 52.125297], [21.085954, 52.126075], [21.085389, 52.126042], [21.085481, 52.125866], [21.085464, 52.125582], [21.085401, 52.125454], [21.08508, 52.12528], [21.083242, 52.124981], [21.083183, 52.125098], [21.084203, 52.125239], [21.084677, 52.125439], [21.084821, 52.12552], [21.084752, 52.125701], [21.084611, 52.125706], [21.08452, 52.125832], [21.083736, 52.12587], [21.082609, 52.125719], [21.082558, 52.125856], [21.083495, 52.12603], [21.084671, 52.126093], [21.084581, 52.126339], [21.084731, 52.126332], [21.08461, 52.126435], [21.085614, 52.126742], [21.084664, 52.12745], [21.084382, 52.127467], [21.083601, 52.128174], [21.083446, 52.128422], [21.083138, 52.128405], [21.083132, 52.128628], [21.082718, 52.128551], [21.08243, 52.128354], [21.082323, 52.128209], [21.082381, 52.127975], [21.082127, 52.127925], [21.082125, 52.127765], [21.082019, 52.127717], [21.081881, 52.127823], [21.08179, 52.128007], [21.081908, 52.128055], [21.0819, 52.128183], [21.081614, 52.128215], [21.081381, 52.128514], [21.081464, 52.128575], [21.081749, 52.12854], [21.082026, 52.128656], [21.082202, 52.12878], [21.082252, 52.128935], [21.082465, 52.129057], [21.082249, 52.129484], [21.082329, 52.12951], [21.082247, 52.129691], [21.082049, 52.129669], [21.082065, 52.129825], [21.081544, 52.129731], [21.08133, 52.130146], [21.081152, 52.130208], [21.081358, 52.130775], [21.081883, 52.130923], [21.081626, 52.131444], [21.080742, 52.13148], [21.081321, 52.131651], [21.08146, 52.131834], [21.081337, 52.132246], [21.081005, 52.132764], [21.080916, 52.132865], [21.080732, 52.132868], [21.0799, 52.132707], [21.079859, 52.132495], [21.07976, 52.132412], [21.079207, 52.132802], [21.077863, 52.132684], [21.076654, 52.132478], [21.07661, 52.132529], [21.077435, 52.132938], [21.079596, 52.133234], [21.079456, 52.133462], [21.079963, 52.133149], [21.080365, 52.133217], [21.079837, 52.134293], [21.080046, 52.134361], [21.080034, 52.134483], [21.079352, 52.13509], [21.079142, 52.135402], [21.078579, 52.135312], [21.078644, 52.134928], [21.078288, 52.134549], [21.078221, 52.134379], [21.077965, 52.134362], [21.078158, 52.134522], [21.078368, 52.134887], [21.078362, 52.135026], [21.078068, 52.135365], [21.07776, 52.135417], [21.07732, 52.13523], [21.076987, 52.135247], [21.076553, 52.135379], [21.076473, 52.135565], [21.075561, 52.135422], [21.075619, 52.13547], [21.073954, 52.137374], [21.072329, 52.137233], [21.072108, 52.137474], [21.071984, 52.139258], [21.072055, 52.139277], [21.067857, 52.144242], [21.068248, 52.144477], [21.069905, 52.145096], [21.067819, 52.147284], [21.06761, 52.146991], [21.0672, 52.147075], [21.066955, 52.147606], [21.066528, 52.147738], [21.06693, 52.147995], [21.066259, 52.148483], [21.065116, 52.149563], [21.064745, 52.14978], [21.064743, 52.149945], [21.063654, 52.150845], [21.063017, 52.150537], [21.062898, 52.15077], [21.063149, 52.15107], [21.063153, 52.1514], [21.062891, 52.151625], [21.062973, 52.151744], [21.062772, 52.151898], [21.06234, 52.151933], [21.062138, 52.151837], [21.061438, 52.152244], [21.061145, 52.152516], [21.060977, 52.153842], [21.060284, 52.155022], [21.059765, 52.1555], [21.059682, 52.155465], [21.059731, 52.155948], [21.059155, 52.156881], [21.058927, 52.15696], [21.058947, 52.15705], [21.058602, 52.157628], [21.058126, 52.158187], [21.057842, 52.158372], [21.057565, 52.158882], [21.057397, 52.158941], [21.057382, 52.159115], [21.056316, 52.160317], [21.055704, 52.160231], [21.055855, 52.160765], [21.055758, 52.160873], [21.054817, 52.161764], [21.053926, 52.161428], [21.053761, 52.161452], [21.054518, 52.161945], [21.053138, 52.163171], [21.05221, 52.163808], [21.051589, 52.163582], [21.051497, 52.163689], [21.051955, 52.164046], [21.050977, 52.164689], [21.049908, 52.16575], [21.049324, 52.165656], [21.049547, 52.165282], [21.049607, 52.164922], [21.049295, 52.16489], [21.048575, 52.165548], [21.048599, 52.165937], [21.049436, 52.166158], [21.049182, 52.166393], [21.048935, 52.166384], [21.047742, 52.167454], [21.047254, 52.168066], [21.047726, 52.168238], [21.04773, 52.168327], [21.054105, 52.169483], [21.051208, 52.171395], [21.046702, 52.1738], [21.046022, 52.174283], [21.045992, 52.174381], [21.043311, 52.174985], [21.04348, 52.174877], [21.043303, 52.173952], [21.043032, 52.173204], [21.042637, 52.17264], [21.039535, 52.169977], [21.038848, 52.169487], [21.037432, 52.168752], [21.035958, 52.168246], [21.033115, 52.167455], [21.031305, 52.16699], [21.029933, 52.166765], [21.029099, 52.167226], [21.028246, 52.167529], [21.027464, 52.167665], [21.026229, 52.167712], [21.025887, 52.16768], [21.025893, 52.167308], [21.025005, 52.167266], [21.024486, 52.166915], [21.024449, 52.166528], [21.021664, 52.166601], [21.020839, 52.166712], [21.019566, 52.167046], [21.020003, 52.16626], [21.018457, 52.164279], [21.01693, 52.164775], [21.016843, 52.164919], [21.016563, 52.164837], [21.015865, 52.16483], [21.015856, 52.165652], [21.012296, 52.165519], [21.011843, 52.166682], [21.011614, 52.166961], [21.010115, 52.167346], [21.008748, 52.167835], [21.008214, 52.167009], [20.997979, 52.169389], [20.99757, 52.169419], [20.996872, 52.169299], [20.994066, 52.170096], [20.988586, 52.17137], [20.988161, 52.170735], [20.98817, 52.170412], [20.987788, 52.170398], [20.987774, 52.170594], [20.987633, 52.170761], [20.987019, 52.171068], [20.987109, 52.170603], [20.987133, 52.169056], [20.986959, 52.168059], [20.986848, 52.168066], [20.986818, 52.167932], [20.986798, 52.167243], [20.986818, 52.165042], [20.986916, 52.164963], [20.987019, 52.162524], [20.98653, 52.162306], [20.986526, 52.162065], [20.986985, 52.16207], [20.987032, 52.160673], [20.987152, 52.160503], [20.987405, 52.160448], [20.987824, 52.154582], [20.988869, 52.146714], [20.988734, 52.14658], [20.988892, 52.146495], [20.989407, 52.141852], [20.984543, 52.142182], [20.983528, 52.140501], [20.983446, 52.140482], [20.983556, 52.140236], [20.983822, 52.139966], [20.985034, 52.139078], [20.980997, 52.133859], [20.981076, 52.133851], [20.980343, 52.132898], [20.980179, 52.132816], [20.980106, 52.132669], [20.979958, 52.130274], [20.979977, 52.129435]]]]}}, {"type": "Feature", "properties": {"name": "Wawer", "slug": "wawer", "osm_relation": 2579782, "in": {"en": "in Wawer", "pl": "w Wawrze"}}, "geometry": {"type": "MultiPolygon", "coordinates": [[[[21.092394, 52.215206], [21.095246, 52.213775], [21.099168, 52.211223], [21.100762, 52.20969], [21.102515, 52.207362], [21.103477, 52.205564], [21.104089, 52.204073], [21.104715, 52.201577], [21.104661, 52.197703], [21.104827, 52.196623], [21.104912, 52.194522], [21.10839, 52.189063], [21.110223, 52.186763], [21.112241, 52.184671], [21.114717, 52.182521], [21.116889, 52.180974], [21.118969, 52.17971], [21.121172, 52.178578], [21.122917, 52.177804], [21.129313, 52.175443], [21.131547, 52.174461], [21.133994, 52.17312], [21.136593, 52.171366], [21.137907, 52.170309], [21.138945, 52.169291], [21.140989, 52.166708], [21.141721, 52.165445], [21.142359, 52.16405], [21.142875, 52.162411], [21.143024, 52.161168], [21.143569, 52.159283], [21.143995, 52.158416], [21.144666, 52.157417], [21.14552, 52.156437], [21.147077, 52.155022], [21.148636, 52.153947], [21.150225, 52.153097], [21.151968, 52.152379], [21.156831, 52.15079], [21.158482, 52.150035], [21.159674, 52.149355], [21.160926, 52.148374], [21.161902, 52.147412], [21.162512, 52.146714], [21.163121, 52.145752], [21.164958, 52.144727], [21.171423, 52.145441], [21.175924, 52.146734], [21.175853, 52.148459], [21.188402, 52.150511], [21.188623, 52.149478], [21.201149, 52.150647], [21.202705, 52.15088], [21.208551, 52.151442], [21.214737, 52.152175], [21.21507, 52.151835], [21.218982, 52.153318], [21.219539, 52.153832], [21.2239, 52.155404], [21.234723, 52.15891], [21.248752, 52.153036], [21.247139, 52.151642], [21.255741, 52.147172], [21.262074, 52.152462], [21.26243, 52.152793], [21.262579, 52.153102], [21.25405, 52.157379], [21.255553, 52.15865], [21.256536, 52.160574], [21.260368, 52.162023], [21.260683, 52.162967], [21.261243, 52.165384], [21.261459, 52.165749], [21.263114, 52.167382], [21.267686, 52.167448], [21.267617, 52.16841], [21.270791, 52.168538], [21.270317, 52.169555], [21.267526, 52.170125], [21.267335, 52.173317], [21.269569, 52.17336], [21.269959, 52.172043], [21.271151, 52.172151], [21.271023, 52.17401], [21.270037, 52.173944], [21.259765, 52.182555], [21.263379, 52.183975], [21.265383, 52.186001], [21.240229, 52.19588], [21.23876, 52.19668], [21.238807, 52.197045], [21.216283, 52.197439], [21.216207, 52.200031], [21.21571, 52.200677], [21.216373, 52.201052], [21.215781, 52.201976], [21.215507, 52.202105], [21.21614, 52.202917], [21.216466, 52.203531], [21.216634, 52.204741], [21.218411, 52.205253], [21.215844, 52.208313], [21.214621, 52.209267], [21.21529, 52.21222], [21.213246, 52.214383], [21.21215, 52.214301], [21.206531, 52.220466], [21.207282, 52.220642], [21.206983, 52.222669], [21.207326, 52.227633], [21.211905, 52.230009], [21.207123, 52.233159], [21.205162, 52.233836], [21.200917, 52.234741], [21.197992, 52.234437], [21.196988, 52.234551], [21.184035, 52.239761], [21.181074, 52.241717], [21.177752, 52.2442], [21.177604, 52.244433], [21.176434, 52.245137], [21.173388, 52.243491], [21.163613, 52.24157], [21.163202, 52.24236], [21.162226, 52.242209], [21.161711, 52.243024], [21.156435, 52.241979], [21.155556, 52.241953], [21.15327, 52.241367], [21.141764, 52.239079], [21.139446, 52.243214], [21.138191, 52.243166], [21.137425, 52.242771], [21.135659, 52.241464], [21.134108, 52.240225], [21.133459, 52.239609], [21.133133, 52.239495], [21.13264, 52.239059], [21.12839, 52.234961], [21.128373, 52.234861], [21.127881, 52.234385], [21.127923, 52.234259], [21.127714, 52.233626], [21.12738, 52.233333], [21.12617, 52.232779], [21.124564, 52.232472], [21.119377, 52.232419], [21.097363, 52.218289], [21.09704, 52.218448], [21.096523, 52.218053], [21.096161, 52.21738], [21.092394, 52.215206]]]]}}, {"type": "Feature", "properties": {"name": "Wesoła", "slug": "wesola", "osm_relation": 2579783, "in": {"en": "in Wesoła", "pl": "w Wesołej"}}, "geometry": {"type": "MultiPolygon", "coordinates": [[[[21.176677, 52.245035], [21.177604, 52.244433], [21.177752, 52.2442], [21.181074, 52.241717], [21.184035, 52.239761], [21.196988, 52.234551], [21.197992, 52.234437], [21.200917, 52.234741], [21.205162, 52.233836], [21.207123, 52.233159], [21.211905, 52.230009], [21.207326, 52.227633], [21.206983, 52.222669], [21.207282, 52.220642], [21.206531, 52.220466], [21.21215, 52.214301], [21.213246, 52.214383], [21.21529, 52.21222], [21.214621, 52.209267], [21.215844, 52.208313], [21.218411, 52.205253], [21.216634, 52.204741], [21.216466, 52.203531], [21.21614, 52.202917], [21.215507, 52.202105], [21.215781, 52.201976], [21.216373, 52.201052], [21.21571, 52.200677], [21.216207, 52.200031], [21.216283, 52.197439], [21.238807, 52.197045], [21.23876, 52.19668], [21.240229, 52.19588], [21.242985, 52.198384], [21.243006, 52.19933], [21.245165, 52.200304], [21.245733, 52.200863], [21.25095, 52.202494], [21.250313, 52.203037], [21.24859, 52.204233], [21.248235, 52.20598], [21.24909, 52.20696], [21.25059, 52.207756], [21.252224, 52.208466], [21.254143, 52.209435], [21.256802, 52.209577], [21.259822, 52.2099], [21.261207, 52.209855], [21.261727, 52.210073], [21.250663, 52.222053], [21.250321, 52.222485], [21.25049, 52.222561], [21.249457, 52.222558], [21.250428, 52.231928], [21.254381, 52.235273], [21.254769, 52.238733], [21.253724, 52.238585], [21.252129, 52.238124], [21.251258, 52.237787], [21.248782, 52.236602], [21.247647, 52.236479], [21.246465, 52.236227], [21.245273, 52.236068], [21.243975, 52.236023], [21.242096, 52.236204], [21.239467, 52.236256], [21.237949, 52.245027], [21.253717, 52.245762], [21.254644, 52.253169], [21.25243, 52.253271], [21.250469, 52.262692], [21.190483, 52.256175], [21.190693, 52.255314], [21.191339, 52.24993], [21.19039, 52.249661], [21.188891, 52.252298], [21.186956, 52.251773], [21.186971, 52.250399], [21.182907, 52.249506], [21.184438, 52.246935], [21.184199, 52.246781], [21.184437, 52.246605], [21.18418, 52.246448], [21.184104, 52.246316], [21.181058, 52.245717], [21.17678, 52.245205], [21.176677, 52.245035]]]]}}, {"type": "Feature", "properties": {"name": "Wilanów", "slug": "wilanow", "osm_relation": 2536108, "in": {"en": "in Wilanów", "pl": "w Wilanowie"}}, "geometry": {"type": "MultiPolygon", "coordinates": [[[[21.047397, 52.168138], [21.047726, 52.168238], [21.04773, 52.168327], [21.054105, 52.169483], [21.057497, 52.169741], [21.058998, 52.169971], [21.059787, 52.170186], [21.062164, 52.170204], [21.066066, 52.169754], [21.067358, 52.169769], [21.067952, 52.169631], [21.068087, 52.169818], [21.068613, 52.170206], [21.067797, 52.170832], [21.063066, 52.175323], [21.065132, 52.176095], [21.065681, 52.175547], [21.065786, 52.175529], [21.069093, 52.176724], [21.069445, 52.176952], [21.069984, 52.177567], [21.070738, 52.177786], [21.071765, 52.178407], [21.071772, 52.178493], [21.071954, 52.178603], [21.072127, 52.178494], [21.072367, 52.178633], [21.07264, 52.179088], [21.072658, 52.179325], [21.074103, 52.180191], [21.074161, 52.180331], [21.081047, 52.184551], [21.081238, 52.184601], [21.081521, 52.184537], [21.08915, 52.181299], [21.089382, 52.1811], [21.089279, 52.18082], [21.089702, 52.180623], [21.094758, 52.180965], [21.094258, 52.181931], [21.094179, 52.182602], [21.095085, 52.185192], [21.095408, 52.185631], [21.096098, 52.18604], [21.096685, 52.186198], [21.097521, 52.186291], [21.098201, 52.186542], [21.098582, 52.186817], [21.099055, 52.187332], [21.099314, 52.187822], [21.099611, 52.189141], [21.099551, 52.189572], [21.099141, 52.190379], [21.099218, 52.190805], [21.099415, 52.191186], [21.099867, 52.191618], [21.100956, 52.192208], [21.102664, 52.192646], [21.10291, 52.192895], [21.103393, 52.193636], [21.104912, 52.194522], [21.10839, 52.189063], [21.110223, 52.186763], [21.112241, 52.184671], [21.114717, 52.182521], [21.116889, 52.180974], [21.118969, 52.17971], [21.121172, 52.178578], [21.122917, 52.177804], [21.129313, 52.175443], [21.131547, 52.174461], [21.133994, 52.17312], [21.136593, 52.171366], [21.137907, 52.170309], [21.138945, 52.169291], [21.140074, 52.167915], [21.140989, 52.166708], [21.141721, 52.165445], [21.142359, 52.16405], [21.142875, 52.162411], [21.143024, 52.161168], [21.143266, 52.160244], [21.143569, 52.159283], [21.143995, 52.158416], [21.144666, 52.157417], [21.14552, 52.156437], [21.147077, 52.155022], [21.148636, 52.153947], [21.150225, 52.153097], [21.151968, 52.152379], [21.156831, 52.15079], [21.158482, 52.150035], [21.159674, 52.149355], [21.160926, 52.148374], [21.161902, 52.147412], [21.162512, 52.146714], [21.163121, 52.145752], [21.164958, 52.144727], [21.154693, 52.1436], [21.153141, 52.142505], [21.153776, 52.140895], [21.154069, 52.140492], [21.153852, 52.140132], [21.153296, 52.139966], [21.151644, 52.139759], [21.150488, 52.139857], [21.150097, 52.139744], [21.147942, 52.138514], [21.145039, 52.135452], [21.1412, 52.133195], [21.140124, 52.132947], [21.14029, 52.132594], [21.140549, 52.132402], [21.140512, 52.131969], [21.140236, 52.131755], [21.140134, 52.131576], [21.139164, 52.131533], [21.13872, 52.131322], [21.13866, 52.131185], [21.138904, 52.131085], [21.13601, 52.127873], [21.135734, 52.127369], [21.13545, 52.126491], [21.135274, 52.126184], [21.134703, 52.123428], [21.133223, 52.123007], [21.132455, 52.123259], [21.132339, 52.123687], [21.131566, 52.124889], [21.131195, 52.125225], [21.130754, 52.125436], [21.13002, 52.126859], [21.129564, 52.127181], [21.129191, 52.127027], [21.128567, 52.126631], [21.127225, 52.126003], [21.126638, 52.124936], [21.126478, 52.124162], [21.12605, 52.124185], [21.125321, 52.122732], [21.125028, 52.1223], [21.123716, 52.121027], [21.121887, 52.119712], [21.119781, 52.11898], [21.118009, 52.118541], [21.117477, 52.118583], [21.116231, 52.118867], [21.111704, 52.116021], [21.108743, 52.114594], [21.110097, 52.113169], [21.1001, 52.108353], [21.100908, 52.108138], [21.100251, 52.108091], [21.099365, 52.108362], [21.098942, 52.108753], [21.098348, 52.108747], [21.098248, 52.108941], [21.098519, 52.109065], [21.098001, 52.109474], [21.097203, 52.110593], [21.096569, 52.110565], [21.096496, 52.110702], [21.096853, 52.110963], [21.096724, 52.11123], [21.096532, 52.111381], [21.096146, 52.111404], [21.095994, 52.111807], [21.096329, 52.111883], [21.096226, 52.112152], [21.095693, 52.113113], [21.095083, 52.113762], [21.094249, 52.113976], [21.092466, 52.114149], [21.090132, 52.114197], [21.088358, 52.114513], [21.08651, 52.11446], [21.086571, 52.114812], [21.087183, 52.114906], [21.089128, 52.114886], [21.09157, 52.114741], [21.092174, 52.114899], [21.093494, 52.114508], [21.093748, 52.1146], [21.094201, 52.11461], [21.094216, 52.114741], [21.093501, 52.115646], [21.092496, 52.116656], [21.091883, 52.116728], [21.092092, 52.116927], [21.092073, 52.117096], [21.091877, 52.117073], [21.091799, 52.117585], [21.091711, 52.117651], [21.090762, 52.117621], [21.090809, 52.117354], [21.089935, 52.117511], [21.089584, 52.117485], [21.08929, 52.117762], [21.089042, 52.117864], [21.08878, 52.117779], [21.087648, 52.117708], [21.087036, 52.117547], [21.087038, 52.117696], [21.087692, 52.117934], [21.0887, 52.118131], [21.088061, 52.118465], [21.088041, 52.118774], [21.087631, 52.11894], [21.087203, 52.118971], [21.086887, 52.119384], [21.086585, 52.11951], [21.086443, 52.119737], [21.086591, 52.119776], [21.087383, 52.119427], [21.08789, 52.119002], [21.088284, 52.118873], [21.088593, 52.11853], [21.089074, 52.118227], [21.090125, 52.118185], [21.089805, 52.118397], [21.089697, 52.118618], [21.089744, 52.118908], [21.089183, 52.119646], [21.089372, 52.119771], [21.090071, 52.119159], [21.090152, 52.118826], [21.090355, 52.118555], [21.090783, 52.118427], [21.091725, 52.118422], [21.091591, 52.118803], [21.090941, 52.119861], [21.088789, 52.120226], [21.088665, 52.120446], [21.088673, 52.120595], [21.090164, 52.120421], [21.090448, 52.120533], [21.090208, 52.121128], [21.088809, 52.1226], [21.088557, 52.122729], [21.088591, 52.122919], [21.088445, 52.123102], [21.087241, 52.123067], [21.087177, 52.123323], [21.0874, 52.12359], [21.087722, 52.123647], [21.087414, 52.124064], [21.087024, 52.124128], [21.086679, 52.124419], [21.086368, 52.124525], [21.085552, 52.124508], [21.084611, 52.124832], [21.084186, 52.124865], [21.084818, 52.124885], [21.085651, 52.12474], [21.086644, 52.124933], [21.086661, 52.125014], [21.086429, 52.12512], [21.086634, 52.125297], [21.085954, 52.126075], [21.085389, 52.126042], [21.085481, 52.125866], [21.085464, 52.125582], [21.085401, 52.125454], [21.08508, 52.12528], [21.083242, 52.124981], [21.083183, 52.125098], [21.084203, 52.125239], [21.084677, 52.125439], [21.084821, 52.12552], [21.084752, 52.125701], [21.084611, 52.125706], [21.08452, 52.125832], [21.083736, 52.12587], [21.082609, 52.125719], [21.082558, 52.125856], [21.083495, 52.12603], [21.084671, 52.126093], [21.084581, 52.126339], [21.084731, 52.126332], [21.08461, 52.126435], [21.085614, 52.126742], [21.084664, 52.12745], [21.084382, 52.127467], [21.083601, 52.128174], [21.083446, 52.128422], [21.083138, 52.128405], [21.083132, 52.128628], [21.082718, 52.128551], [21.08243, 52.128354], [21.082323, 52.128209], [21.082381, 52.127975], [21.082127, 52.127925], [21.082125, 52.127765], [21.082019, 52.127717], [21.081881, 52.127823], [21.08179, 52.128007], [21.081908, 52.128055], [21.0819, 52.128183], [21.081614, 52.128215], [21.081381, 52.128514], [21.081464, 52.128575], [21.081749, 52.12854], [21.082026, 52.128656], [21.082202, 52.12878], [21.082252, 52.128935], [21.082465, 52.129057], [21.082249, 52.129484], [21.082329, 52.12951], [21.082247, 52.129691], [21.082049, 52.129669], [21.082065, 52.129825], [21.081544, 52.129731], [21.08133, 52.130146], [21.081152, 52.130208], [21.081358, 52.130775], [21.081883, 52.130923], [21.081626, 52.131444], [21.080742, 52.13148], [21.081321, 52.131651], [21.08146, 52.131834], [21.081337, 52.132246], [21.081005, 52.132764], [21.080916, 52.132865], [21.080732, 52.132868], [21.0799, 52.132707], [21.079859, 52.132495], [21.07976, 52.132412], [21.079207, 52.132802], [21.077863, 52.132684], [21.076654, 52.132478], [21.07661, 52.132529], [21.077435, 52.132938], [21.079596, 52.133234], [21.079456, 52.133462], [21.079963, 52.133149], [21.080365, 52.133217], [21.079837, 52.134293], [21.080046, 52.134361], [21.080034, 52.134483], [21.079352, 52.13509], [21.079142, 52.135402], [21.078579, 52.135312], [21.078644, 52.134928], [21.078288, 52.134549], [21.078221, 52.134379], [21.077965, 52.134362], [21.078158, 52.134522], [21.078368, 52.134887], [21.078362, 52.135026], [21.078068, 52.135365], [21.07776, 52.135417], [21.07732, 52.13523], [21.076987, 52.135247], [21.076553, 52.135379], [21.076473, 52.135565], [21.075561, 52.135422], [21.075619, 52.13547], [21.073954, 52.137374], [21.072329, 52.137233], [21.072108, 52.137474], [21.071984, 52.139258], [21.072055, 52.139277], [21.067857, 52.144242], [21.068248, 52.144477], [21.069905, 52.145096], [21.067819, 52.147284], [21.06761, 52.146991], [21.0672, 52.147075], [21.066955, 52.147606], [21.066528, 52.147738], [21.06693, 52.147995], [21.066259, 52.148483], [21.065116, 52.149563], [21.064745, 52.14978], [21.064743, 52.149945], [21.063654, 52.150845], [21.063017, 52.150537], [21.062898, 52.15077], [21.063149, 52.15107], [21.063153, 52.1514], [21.062891, 52.151625], [21.062973, 52.151744], [21.062772, 52.151898], [21.06234, 52.151933], [21.062138, 52.151837], [21.061438, 52.152244], [21.061145, 52.152516], [21.060977, 52.153842], [21.060284, 52.155022], [21.059765, 52.1555], [21.059682, 52.155465], [21.059731, 52.155948], [21.059155, 52.156881], [21.058927, 52.15696], [21.058947, 52.15705], [21.058602, 52.157628], [21.058126, 52.158187], [21.057842, 52.158372], [21.057565, 52.158882], [21.057397, 52.158941], [21.057382, 52.159115], [21.056316, 52.160317], [21.055704, 52.160231], [21.055855, 52.160765], [21.054817, 52.161764], [21.053926, 52.161428], [21.053761, 52.161452], [21.054518, 52.161945], [21.053138, 52.163171], [21.05221, 52.163808], [21.051589, 52.163582], [21.051497, 52.163689], [21.051955, 52.164046], [21.050977, 52.164689], [21.049908, 52.16575], [21.049324, 52.165656], [21.049547, 52.165282], [21.049607, 52.164922], [21.049295, 52.16489], [21.048575, 52.165548], [21.04854, 52.165712], [21.048599, 52.165937], [21.049436, 52.166158], [21.049182, 52.166393], [21.048935, 52.166384], [21.047742, 52.167454], [21.047241, 52.168017], [21.047397, 52.168138]]]]}}, {"type": "Feature", "properties": {"name": "Włochy", "slug": "wlochy", "osm_relation": 2534035, "in": {"en": "in Włochy", "pl": "we Włochach"}}, "geometry": {"type": "MultiPolygon", "coordinates": [[[[20.880344, 52.209066], [20.88106, 52.209006], [20.896723, 52.202722], [20.897948, 52.202301], [20.900143, 52.201707], [20.899968, 52.200047], [20.900674, 52.199519], [20.902254, 52.198683], [20.90318, 52.198326], [20.9063, 52.197604], [20.908182, 52.196789], [20.910542, 52.195975], [20.910453, 52.1957], [20.912126, 52.19428], [20.915382, 52.192733], [20.91577, 52.192751], [20.9192, 52.193762], [20.916821, 52.189488], [20.91611, 52.187883], [20.914976, 52.18621], [20.913587, 52.183615], [20.911223, 52.179556], [20.917038, 52.178452], [20.916765, 52.177805], [20.918736, 52.177443], [20.918398, 52.177055], [20.918997, 52.176869], [20.919102, 52.176756], [20.91916, 52.176469], [20.919159, 52.171081], [20.920913, 52.170966], [20.921591, 52.170545], [20.922252, 52.169779], [20.922842, 52.169562], [20.922828, 52.169462], [20.923427, 52.169262], [20.923383, 52.168988], [20.92318, 52.168868], [20.924821, 52.168431], [20.92462, 52.167994], [20.92471, 52.167698], [20.924857, 52.167664], [20.924991, 52.167483], [20.925428, 52.167368], [20.923942, 52.166279], [20.928726, 52.16472], [20.930486, 52.164037], [20.929797, 52.163388], [20.932951, 52.161994], [20.937567, 52.160161], [20.942896, 52.158558], [20.944993, 52.158095], [20.947026, 52.157177], [20.948136, 52.15694], [20.953762, 52.156139], [20.95377, 52.15299], [20.954758, 52.152679], [20.955988, 52.151899], [20.956456, 52.151462], [20.956987, 52.151206], [20.958312, 52.150117], [20.959268, 52.149585], [20.961426, 52.148567], [20.96647, 52.146732], [20.967931, 52.146122], [20.969904, 52.145445], [20.9756, 52.144296], [20.977169, 52.143771], [20.978139, 52.143281], [20.978646, 52.143138], [20.981194, 52.141653], [20.983446, 52.140482], [20.983528, 52.140501], [20.984543, 52.142182], [20.989407, 52.141852], [20.988892, 52.146495], [20.988734, 52.14658], [20.988869, 52.146714], [20.987824, 52.154582], [20.987405, 52.160448], [20.987152, 52.160503], [20.987032, 52.160673], [20.986985, 52.16207], [20.986526, 52.162065], [20.98653, 52.162306], [20.987019, 52.162524], [20.986916, 52.164963], [20.986818, 52.165042], [20.986801, 52.167671], [20.986848, 52.168066], [20.986959, 52.168059], [20.987133, 52.169056], [20.987099, 52.170709], [20.986876, 52.171434], [20.986977, 52.17235], [20.986978, 52.174676], [20.986598, 52.189054], [20.986455, 52.189696], [20.986143, 52.19032], [20.986042, 52.19034], [20.985253, 52.191238], [20.984258, 52.19195], [20.982847, 52.19258], [20.971257, 52.195379], [20.948973, 52.200503], [20.947225, 52.200942], [20.94574, 52.201512], [20.944705, 52.202149], [20.943925, 52.202866], [20.943609, 52.202768], [20.942894, 52.203519], [20.942827, 52.203675], [20.942548, 52.203705], [20.941906, 52.204297], [20.942058, 52.204383], [20.938112, 52.208206], [20.9372, 52.208858], [20.936515, 52.210894], [20.936731, 52.210919], [20.937087, 52.211721], [20.937382, 52.212135], [20.935932, 52.21215], [20.934054, 52.211838], [20.932472, 52.211386], [20.932438, 52.211448], [20.932141, 52.211386], [20.930042, 52.210867], [20.927844, 52.210081], [20.927086, 52.209882], [20.925475, 52.20976], [20.925444, 52.210102], [20.924274, 52.21018], [20.923336, 52.210529], [20.92281, 52.210926], [20.922485, 52.211486], [20.922435, 52.211844], [20.922505, 52.212164], [20.922881, 52.212718], [20.923572, 52.213163], [20.924417, 52.213419], [20.924208, 52.213898], [20.922575, 52.213718], [20.921907, 52.213736], [20.920696, 52.213929], [20.918443, 52.214665], [20.916255, 52.214478], [20.914451, 52.214651], [20.914369, 52.214603], [20.914237, 52.21419], [20.912639, 52.213963], [20.909792, 52.213629], [20.90865, 52.213604], [20.908663, 52.213513], [20.907365, 52.213416], [20.887083, 52.210887], [20.881716, 52.209844], [20.881126, 52.209603], [20.880344, 52.209066]]]]}}, {"type": "Feature", "properties": {"name": "Wola", "slug": "wola", "osm_relation": 2531982, "in": {"en": "in Wola", "pl": "na Woli"}}, "geometry": {"type": "MultiPolygon", "coordinates": [[[[20.914663, 52.214627], [20.915471, 52.217146], [20.915661, 52.217168], [20.915761, 52.217329], [20.916978, 52.217434], [20.919261, 52.217785], [20.921191, 52.218294], [20.923033, 52.219183], [20.923765, 52.21975], [20.924376, 52.220584], [20.924576, 52.221485], [20.924497, 52.222181], [20.924413, 52.222198], [20.92365, 52.22384], [20.921711, 52.227591], [20.92145, 52.228469], [20.921476, 52.229415], [20.921308, 52.229408], [20.922732, 52.234182], [20.924655, 52.24004], [20.924757, 52.240256], [20.92486, 52.240251], [20.925045, 52.240674], [20.924869, 52.241191], [20.925001, 52.241313], [20.925158, 52.241265], [20.925596, 52.242425], [20.926024, 52.243083], [20.926915, 52.243887], [20.927592, 52.24432], [20.93213, 52.24669], [20.932668, 52.2469], [20.938533, 52.249893], [20.938476, 52.250019], [20.939217, 52.250269], [20.940396, 52.250517], [20.94412, 52.252442], [20.946164, 52.253973], [20.94837, 52.256504], [20.948865, 52.256388], [20.950857, 52.255655], [20.951486, 52.255518], [20.95422, 52.255386], [20.954667, 52.255261], [20.95855, 52.255786], [20.960023, 52.25583], [20.96195, 52.255176], [20.963237, 52.255006], [20.964516, 52.254378], [20.965589, 52.254311], [20.969723, 52.255731], [20.970015, 52.255585], [20.970473, 52.255716], [20.970489, 52.255794], [20.971095, 52.256042], [20.973648, 52.256959], [20.973562, 52.257068], [20.979429, 52.259138], [20.979573, 52.25902], [20.981027, 52.259436], [20.981657, 52.256957], [20.982644, 52.25457], [20.995423, 52.239693], [20.998179, 52.233211], [21.001641, 52.22798], [20.991076, 52.225633], [20.990292, 52.225507], [20.989998, 52.225554], [20.989161, 52.225374], [20.987686, 52.224875], [20.980418, 52.223341], [20.980444, 52.223292], [20.979354, 52.223053], [20.979399, 52.222977], [20.977915, 52.222616], [20.97723, 52.222321], [20.976626, 52.222258], [20.9764, 52.222025], [20.975707, 52.22214], [20.97188, 52.221], [20.970525, 52.220713], [20.970787, 52.220357], [20.968638, 52.219593], [20.968219, 52.219919], [20.968135, 52.220073], [20.964713, 52.219292], [20.96389, 52.218971], [20.963219, 52.218815], [20.958883, 52.218153], [20.959057, 52.217802], [20.958939, 52.217795], [20.957392, 52.216678], [20.956536, 52.21568], [20.955445, 52.215029], [20.954008, 52.214517], [20.952788, 52.214364], [20.95083, 52.214327], [20.94846, 52.214374], [20.944924, 52.214615], [20.94453, 52.214569], [20.943222, 52.214281], [20.942284, 52.213978], [20.940862, 52.213334], [20.938152, 52.212339], [20.937635, 52.212598], [20.935427, 52.212031], [20.934054, 52.211838], [20.932472, 52.211386], [20.932438, 52.211448], [20.932141, 52.211386], [20.930042, 52.210867], [20.927844, 52.210081], [20.926834, 52.209837], [20.925475, 52.20976], [20.925444, 52.210102], [20.924511, 52.21014], [20.923718, 52.210343], [20.923039, 52.210728], [20.922623, 52.211167], [20.922435, 52.211844], [20.922607, 52.212377], [20.922881, 52.212718], [20.923217, 52.212972], [20.923855, 52.213275], [20.924417, 52.213419], [20.924208, 52.213898], [20.922575, 52.213718], [20.921907, 52.213736], [20.920696, 52.213929], [20.918443, 52.214665], [20.916255, 52.214478], [20.914663, 52.214627]]]]}}, {"type": "Feature", "properties": {"name": "Żoliborz", "slug": "zoliborz", "osm_relation": 2531983, "in": {"en": "in Żoliborz", "pl": "na Żoliborzu"}}, "geometry": {"type": "MultiPolygon", "coordinates": [[[[20.947859, 52.255921], [20.94837, 52.256504], [20.948865, 52.256388], [20.950857, 52.255655], [20.951486, 52.255518], [20.95422, 52.255386], [20.954667, 52.255261], [20.95855, 52.255786], [20.960023, 52.25583], [20.96195, 52.255176], [20.963237, 52.255006], [20.964516, 52.254378], [20.965589, 52.254311], [20.969723, 52.255731], [20.970015, 52.255585], [20.970473, 52.255716], [20.970489, 52.255794], [20.971095, 52.256042], [20.973648, 52.256959], [20.973562, 52.257068], [20.979429, 52.259138], [20.979573, 52.25902], [20.981605, 52.259601], [20.986626, 52.259762], [20.986623, 52.259637], [20.990219, 52.259541], [20.990215, 52.259489], [20.997466, 52.259335], [20.997471, 52.25943], [20.99917, 52.259395], [20.999552, 52.259092], [21.000107, 52.259055], [21.003534, 52.259357], [21.005383, 52.259887], [21.005619, 52.260216], [21.005742, 52.260256], [21.005837, 52.260264], [21.00592, 52.260163], [21.006542, 52.260355], [21.006616, 52.26026], [21.009642, 52.261287], [21.007767, 52.263433], [21.006895, 52.264913], [21.005715, 52.267427], [21.005142, 52.26912], [21.004728, 52.270809], [21.004437, 52.272887], [21.00426, 52.275481], [21.004059, 52.276546], [21.003655, 52.277987], [21.002909, 52.27981], [21.001603, 52.282014], [21.000152, 52.283865], [20.999051, 52.285027], [20.997643, 52.286308], [20.995762, 52.287751], [20.990034, 52.285136], [20.989593, 52.285465], [20.98662, 52.286394], [20.985471, 52.285691], [20.985764, 52.284913], [20.985611, 52.283798], [20.985405, 52.283522], [20.98517, 52.283377], [20.976832, 52.279515], [20.976562, 52.27907], [20.971887, 52.276627], [20.970717, 52.275814], [20.970639, 52.275848], [20.970223, 52.275477], [20.967189, 52.274175], [20.966839, 52.274189], [20.966228, 52.274443], [20.965408, 52.273889], [20.964944, 52.274116], [20.964407, 52.273737], [20.964219, 52.273165], [20.962971, 52.271318], [20.962745, 52.271376], [20.962143, 52.27071], [20.961769, 52.270553], [20.959159, 52.268511], [20.958688, 52.268414], [20.957537, 52.267277], [20.957595, 52.267121], [20.95755, 52.266928], [20.955172, 52.26479], [20.95477, 52.264613], [20.9543, 52.26419], [20.953509, 52.263728], [20.951944, 52.262261], [20.951797, 52.26143], [20.95094, 52.260461], [20.950113, 52.259608], [20.947008, 52.256981], [20.947224, 52.256809], [20.947859, 52.255921]]]]}}]}