{"type":"FeatureCollection","source":"OpenStreetMap contributors, ODbL - relation 1690324 (admin_level 9) + 1837692 (fetched 2026-09-27)","features":[{"type":"Feature","properties":{"name":"Barca","slug":"barca","osm_relation":1698624,"in":{"en":"in Barca","sk":"v Barci"}},"geometry":{"type":"MultiPolygon","coordinates":[[[[21.216033,48.682416],[21.219478,48.685143],[21.22211,48.686236],[21.222083,48.686589],[21.222229,48.686554],[21.222436,48.686689],[21.22231,48.686883],[21.222335,48.687057],[21.223601,48.68802],[21.224619,48.688665],[21.228393,48.690727],[21.230591,48.692168],[21.231408,48.69168],[21.231953,48.691464],[21.232281,48.691441],[21.235076,48.690047],[21.236077,48.689965],[21.236583,48.689652],[21.237172,48.68954],[21.237924,48.68925],[21.23818,48.689259],[21.239222,48.689009],[21.239848,48.689081],[21.240137,48.688978],[21.240514,48.688604],[21.241029,48.688431],[21.24187,48.688428],[21.243047,48.68776],[21.24447,48.687252],[21.24494,48.686882],[21.245571,48.686721],[21.246423,48.685773],[21.247533,48.685695],[21.248117,48.685918],[21.24861,48.685996],[21.248996,48.685766],[21.249294,48.685769],[21.249516,48.685996],[21.249729,48.686062],[21.251608,48.685936],[21.251952,48.685813],[21.251964,48.685706],[21.252582,48.685655],[21.253049,48.685341],[21.253785,48.685347],[21.254359,48.685165],[21.25519,48.685076],[21.255323,48.686014],[21.255635,48.685975],[21.255713,48.686329],[21.256094,48.686436],[21.256052,48.686691],[21.256701,48.686841],[21.256945,48.687036],[21.257092,48.687283],[21.25716,48.687625],[21.256379,48.687782],[21.256911,48.688027],[21.2579,48.688756],[21.25852,48.688417],[21.259491,48.688187],[21.262367,48.68819],[21.262468,48.687672],[21.263003,48.687778],[21.263267,48.687014],[21.263435,48.68704],[21.264144,48.685444],[21.264088,48.685354],[21.264145,48.685248],[21.263067,48.685107],[21.263131,48.684894],[21.262863,48.683569],[21.26352,48.683456],[21.264354,48.683523],[21.264369,48.683277],[21.26464,48.683301],[21.264629,48.682964],[21.265038,48.68295],[21.265821,48.682603],[21.266661,48.679572],[21.268081,48.679761],[21.268222,48.679871],[21.268861,48.679879],[21.268793,48.680254],[21.268927,48.680332],[21.26909,48.680278],[21.269037,48.680464],[21.271751,48.680742],[21.271858,48.680526],[21.272486,48.680604],[21.272655,48.680661],[21.272564,48.681026],[21.274916,48.681291],[21.274917,48.681463],[21.274973,48.68147],[21.275223,48.680785],[21.27625,48.68095],[21.275727,48.682215],[21.276015,48.682289],[21.27725,48.680932],[21.279843,48.678758],[21.282088,48.677279],[21.286894,48.674732],[21.286882,48.674646],[21.287654,48.674294],[21.287753,48.67434],[21.289136,48.673589],[21.289555,48.673339],[21.289324,48.67319],[21.291212,48.672258],[21.291312,48.67208],[21.291785,48.671773],[21.293561,48.670755],[21.298106,48.66837],[21.302339,48.666315],[21.304352,48.665185],[21.304449,48.665264],[21.304699,48.665102],[21.305065,48.664698],[21.306991,48.663624],[21.308363,48.66262],[21.308515,48.662638],[21.308789,48.662897],[21.312719,48.660823],[21.313881,48.660365],[21.315149,48.660001],[21.31716,48.659654],[21.320378,48.659501],[21.320811,48.659323],[21.321151,48.659331],[21.321162,48.659104],[21.321342,48.658984],[21.32122,48.658557],[21.321412,48.657558],[21.321592,48.657188],[21.321976,48.656928],[21.322732,48.656045],[21.323988,48.655349],[21.325317,48.654856],[21.32538,48.654927],[21.325457,48.654896],[21.325393,48.654842],[21.326678,48.654403],[21.327487,48.653751],[21.327885,48.653217],[21.328135,48.652668],[21.328195,48.651958],[21.328071,48.651431],[21.321448,48.651103],[21.317926,48.652913],[21.317311,48.652761],[21.317567,48.651945],[21.318967,48.651001],[21.300825,48.650345],[21.299176,48.650165],[21.297324,48.649821],[21.295902,48.64943],[21.288223,48.646958],[21.288011,48.647092],[21.287434,48.647182],[21.286914,48.648394],[21.286081,48.649754],[21.284669,48.651285],[21.284221,48.651587],[21.284781,48.65186],[21.284986,48.652161],[21.286634,48.653093],[21.286806,48.653584],[21.287718,48.653936],[21.287924,48.654356],[21.28902,48.655861],[21.290272,48.657323],[21.29165,48.657579],[21.291481,48.657983],[21.291479,48.658429],[21.290848,48.658474],[21.29062,48.65864],[21.289738,48.659715],[21.289648,48.659979],[21.28934,48.660155],[21.288877,48.6602],[21.288668,48.660297],[21.288471,48.660538],[21.288468,48.660942],[21.288083,48.661413],[21.287739,48.662079],[21.287553,48.66223],[21.287116,48.662312],[21.286518,48.662599],[21.286415,48.662733],[21.286501,48.662897],[21.281912,48.662489],[21.2795,48.66212],[21.277055,48.661884],[21.268362,48.660625],[21.268129,48.660658],[21.265136,48.660322],[21.263305,48.660034],[21.263239,48.66022],[21.260232,48.660049],[21.256661,48.660073],[21.255575,48.660003],[21.252873,48.660161],[21.250674,48.660019],[21.249026,48.660013],[21.24602,48.660184],[21.241906,48.660549],[21.234361,48.66182],[21.232266,48.662791],[21.231279,48.663077],[21.230783,48.663398],[21.229894,48.663705],[21.227695,48.663976],[21.226318,48.663952],[21.223892,48.664119],[21.216654,48.668945],[21.216269,48.670814],[21.211485,48.670872],[21.213561,48.675551],[21.214789,48.678778],[21.215049,48.679199],[21.215454,48.680218],[21.215832,48.681457],[21.216409,48.682295],[21.216033,48.682416]]]]}},{"type":"Feature","properties":{"name":"Dargovských hrdinov","slug":"dargovskych-hrdinov","osm_relation":1697728,"in":{"en":"in Dargovských hrdinov","sk":"na Dargovských hrdinoch"}},"geometry":{"type":"MultiPolygon","coordinates":[[[[21.265974,48.742756],[21.268308,48.743304],[21.270361,48.744115],[21.271347,48.744675],[21.273714,48.746381],[21.274891,48.747912],[21.276051,48.750213],[21.277475,48.752751],[21.277899,48.753774],[21.278409,48.75416],[21.280376,48.756614],[21.282573,48.758874],[21.282696,48.759017],[21.282781,48.759318],[21.2834,48.760018],[21.284773,48.761147],[21.285759,48.761818],[21.286961,48.763241],[21.288025,48.76392],[21.288535,48.764158],[21.289289,48.764367],[21.290909,48.765043],[21.291688,48.765595],[21.29217,48.766123],[21.292587,48.766981],[21.294863,48.773383],[21.294946,48.774211],[21.294737,48.774886],[21.294332,48.775533],[21.292261,48.777976],[21.291578,48.778463],[21.291199,48.779389],[21.291049,48.780619],[21.291506,48.780702],[21.292409,48.781606],[21.292845,48.782313],[21.293446,48.782772],[21.294007,48.783557],[21.295103,48.784394],[21.295254,48.784596],[21.295727,48.784717],[21.296601,48.785126],[21.298019,48.785544],[21.299463,48.78583],[21.300091,48.785756],[21.304378,48.779438],[21.303882,48.779124],[21.304441,48.778213],[21.304923,48.776904],[21.304795,48.77638],[21.304874,48.775522],[21.304465,48.774849],[21.302698,48.774326],[21.301278,48.774193],[21.303213,48.77244],[21.300161,48.771014],[21.301455,48.770151],[21.30143,48.76992],[21.300319,48.769613],[21.300604,48.769027],[21.299923,48.768891],[21.300205,48.767529],[21.300601,48.766696],[21.300524,48.766346],[21.300708,48.765941],[21.300466,48.765435],[21.30073,48.76488],[21.301029,48.76448],[21.301618,48.764374],[21.301944,48.763236],[21.301864,48.762478],[21.303942,48.760345],[21.304243,48.759727],[21.304659,48.759275],[21.305597,48.757499],[21.307228,48.755631],[21.307164,48.75548],[21.307248,48.755257],[21.307985,48.754838],[21.308525,48.754405],[21.307644,48.753659],[21.307835,48.753164],[21.308062,48.752892],[21.309011,48.75242],[21.309527,48.752063],[21.310013,48.751991],[21.310861,48.751483],[21.311035,48.750843],[21.311744,48.750344],[21.312166,48.749511],[21.312782,48.748833],[21.311057,48.74876],[21.311494,48.748308],[21.311505,48.748146],[21.312087,48.747418],[21.3124,48.747073],[21.312831,48.746759],[21.312844,48.746567],[21.313245,48.746302],[21.314245,48.746283],[21.314315,48.746035],[21.315429,48.7451],[21.317197,48.745078],[21.317084,48.744845],[21.316412,48.744077],[21.316587,48.743469],[21.316899,48.742991],[21.317354,48.74304],[21.317015,48.741661],[21.317132,48.741403],[21.316907,48.741083],[21.31513,48.739659],[21.31447,48.739349],[21.314324,48.739434],[21.313526,48.739017],[21.316159,48.739039],[21.316775,48.73889],[21.317423,48.738581],[21.318065,48.738572],[21.318289,48.738257],[21.319935,48.737655],[21.320671,48.737498],[21.320784,48.737358],[21.320944,48.737437],[21.321485,48.737314],[21.321742,48.737342],[21.32274,48.736983],[21.323446,48.737011],[21.324171,48.736803],[21.324816,48.736055],[21.324853,48.735857],[21.324711,48.735568],[21.325188,48.734467],[21.325351,48.733833],[21.325153,48.73354],[21.324441,48.732922],[21.324466,48.732578],[21.325009,48.731816],[21.324091,48.73159],[21.324017,48.730835],[21.324338,48.730724],[21.324822,48.73037],[21.325364,48.730249],[21.326627,48.730208],[21.326658,48.729425],[21.326188,48.728772],[21.325588,48.728377],[21.325039,48.728383],[21.324635,48.728714],[21.323393,48.730178],[21.323201,48.73051],[21.323402,48.730735],[21.32336,48.730864],[21.322883,48.731208],[21.322501,48.731724],[21.322062,48.732559],[21.321326,48.733451],[21.321492,48.733551],[21.321422,48.733603],[21.321244,48.733528],[21.320391,48.734152],[21.318756,48.734819],[21.317365,48.735016],[21.31553,48.735002],[21.313239,48.734574],[21.312597,48.73479],[21.311882,48.734889],[21.311587,48.734819],[21.311241,48.734527],[21.310912,48.734451],[21.310277,48.735142],[21.309319,48.735285],[21.309027,48.734994],[21.308633,48.734844],[21.308574,48.734753],[21.308672,48.734658],[21.308315,48.734673],[21.308555,48.734946],[21.308611,48.735237],[21.307128,48.735338],[21.304829,48.735635],[21.304402,48.736178],[21.302644,48.735745],[21.302559,48.736097],[21.302722,48.736615],[21.302131,48.736048],[21.302185,48.735927],[21.301715,48.735795],[21.301214,48.735991],[21.300977,48.736428],[21.300657,48.736373],[21.300058,48.73709],[21.298524,48.737093],[21.297665,48.736516],[21.297999,48.737133],[21.297158,48.738154],[21.296676,48.738563],[21.296174,48.738591],[21.296066,48.738714],[21.295397,48.738547],[21.295191,48.738654],[21.294785,48.73859],[21.294515,48.738887],[21.294383,48.739521],[21.294278,48.739635],[21.29321,48.73944],[21.292279,48.74122],[21.292117,48.741671],[21.291933,48.741617],[21.291794,48.741672],[21.290639,48.741405],[21.290535,48.741596],[21.289675,48.741365],[21.289966,48.739933],[21.289539,48.7397],[21.289561,48.739406],[21.289638,48.739408],[21.289587,48.739335],[21.289672,48.738514],[21.290122,48.738409],[21.290133,48.738288],[21.290302,48.738271],[21.291136,48.735802],[21.291399,48.735596],[21.291735,48.735668],[21.292013,48.734641],[21.291731,48.734597],[21.292345,48.732786],[21.29159,48.732493],[21.290914,48.731967],[21.29105,48.729988],[21.290903,48.72976],[21.290499,48.729506],[21.290647,48.729306],[21.291072,48.729101],[21.291567,48.729025],[21.291738,48.72912],[21.291699,48.728907],[21.292176,48.726029],[21.292292,48.725779],[21.292635,48.724127],[21.292693,48.723946],[21.293025,48.723858],[21.292961,48.723234],[21.292562,48.722072],[21.291738,48.721313],[21.290979,48.721215],[21.290688,48.721104],[21.289923,48.72119],[21.289561,48.721331],[21.289538,48.721657],[21.289268,48.722374],[21.288829,48.722871],[21.288017,48.723318],[21.286259,48.72381],[21.284493,48.724505],[21.283052,48.725751],[21.282652,48.725934],[21.282395,48.726113],[21.282436,48.72616],[21.281772,48.726528],[21.281373,48.726646],[21.281126,48.726652],[21.280995,48.72655],[21.280617,48.72665],[21.279962,48.726494],[21.279226,48.726165],[21.279279,48.726101],[21.278968,48.725863],[21.277159,48.725009],[21.276652,48.724469],[21.276321,48.724539],[21.276952,48.726233],[21.276823,48.726211],[21.277089,48.727954],[21.277094,48.729142],[21.277269,48.729368],[21.277096,48.729327],[21.277052,48.73005],[21.276923,48.730639],[21.27678,48.731073],[21.276135,48.732294],[21.276221,48.732358],[21.275013,48.733708],[21.27474,48.733803],[21.274779,48.733881],[21.274089,48.734794],[21.273572,48.736244],[21.273379,48.736345],[21.273104,48.736335],[21.273024,48.736456],[21.273345,48.736656],[21.272676,48.738426],[21.272757,48.738451],[21.271709,48.740052],[21.271258,48.740369],[21.270674,48.740584],[21.269558,48.74073],[21.268415,48.741233],[21.267085,48.742008],[21.267365,48.742259],[21.266071,48.742447],[21.265974,48.742756]]]]}},{"type":"Feature","properties":{"name":"Džungľa","slug":"dzungla","osm_relation":1593423,"in":{"en":"in Džungľa","sk":"v Džungli"}},"geometry":{"type":"MultiPolygon","coordinates":[[[[21.258316,48.741531],[21.258394,48.741408],[21.258309,48.741369],[21.258571,48.741029],[21.259284,48.740326],[21.260711,48.73943],[21.262248,48.738884],[21.263108,48.738852],[21.264469,48.73864],[21.265565,48.738327],[21.26666,48.737762],[21.267259,48.737202],[21.267632,48.736548],[21.26772,48.736055],[21.267677,48.735118],[21.267698,48.734963],[21.267826,48.73496],[21.267814,48.734875],[21.268088,48.734836],[21.270079,48.735528],[21.273123,48.73632],[21.273024,48.736456],[21.273345,48.736656],[21.272676,48.738426],[21.272757,48.738451],[21.271709,48.740052],[21.271258,48.740369],[21.270674,48.740584],[21.269558,48.74073],[21.268415,48.741233],[21.267085,48.742008],[21.267365,48.742259],[21.266071,48.742447],[21.265974,48.742756],[21.264379,48.742528],[21.26119,48.742305],[21.260354,48.742183],[21.258937,48.741818],[21.258316,48.741531]]]]}},{"type":"Feature","properties":{"name":"Juh","slug":"juh","osm_relation":1698621,"in":{"en":"in Juh","sk":"na Juhu"}},"geometry":{"type":"MultiPolygon","coordinates":[[[[21.231076,48.691867],[21.236933,48.697672],[21.239516,48.700666],[21.243667,48.705235],[21.244948,48.706797],[21.246986,48.710033],[21.247056,48.710389],[21.246994,48.710537],[21.247076,48.710533],[21.246512,48.711301],[21.246409,48.711558],[21.246425,48.713281],[21.246723,48.71382],[21.247556,48.714863],[21.247798,48.715671],[21.247964,48.715839],[21.248908,48.716129],[21.250681,48.716464],[21.256207,48.715997],[21.260631,48.716329],[21.261008,48.716474],[21.261111,48.716606],[21.262488,48.717174],[21.262585,48.717122],[21.262873,48.717243],[21.262971,48.717118],[21.262936,48.717236],[21.26406,48.717711],[21.271296,48.718936],[21.272298,48.719568],[21.274772,48.721736],[21.275495,48.721326],[21.275963,48.720894],[21.276208,48.720457],[21.277891,48.710849],[21.278043,48.709515],[21.277947,48.708937],[21.277454,48.707752],[21.275849,48.705495],[21.275656,48.704469],[21.275707,48.703853],[21.275803,48.703584],[21.275714,48.703224],[21.277688,48.701227],[21.279397,48.699719],[21.280157,48.699189],[21.280623,48.699036],[21.280698,48.698495],[21.280638,48.698455],[21.280751,48.698211],[21.280604,48.695215],[21.280392,48.693507],[21.280278,48.69346],[21.280182,48.692465],[21.279836,48.691903],[21.279159,48.691462],[21.278189,48.691216],[21.278204,48.691094],[21.2786,48.691091],[21.273141,48.689899],[21.27296,48.690009],[21.273632,48.688582],[21.274086,48.687198],[21.274214,48.686217],[21.274882,48.685236],[21.275243,48.684515],[21.275397,48.683995],[21.275965,48.68297],[21.2765,48.6823],[21.275727,48.682215],[21.27625,48.68095],[21.275223,48.680785],[21.274973,48.68147],[21.274917,48.681463],[21.274916,48.681291],[21.272564,48.681026],[21.272655,48.680661],[21.272486,48.680604],[21.271858,48.680526],[21.271751,48.680742],[21.269037,48.680464],[21.26909,48.680278],[21.268927,48.680332],[21.268793,48.680254],[21.268861,48.679879],[21.268222,48.679871],[21.268081,48.679761],[21.266661,48.679572],[21.265821,48.682603],[21.265038,48.68295],[21.264629,48.682964],[21.26464,48.683301],[21.264369,48.683277],[21.264354,48.683523],[21.26352,48.683456],[21.262863,48.683569],[21.263131,48.684894],[21.263067,48.685107],[21.264145,48.685248],[21.264088,48.685354],[21.264144,48.685444],[21.263435,48.68704],[21.263267,48.687014],[21.263003,48.687778],[21.262468,48.687672],[21.262367,48.68819],[21.259491,48.688187],[21.25852,48.688417],[21.2579,48.688756],[21.256911,48.688027],[21.256379,48.687782],[21.25716,48.687625],[21.257092,48.687283],[21.256945,48.687036],[21.256701,48.686841],[21.256052,48.686691],[21.256094,48.686436],[21.255713,48.686329],[21.255635,48.685975],[21.255323,48.686014],[21.25519,48.685076],[21.254359,48.685165],[21.253785,48.685347],[21.253049,48.685341],[21.252582,48.685655],[21.251964,48.685706],[21.251952,48.685813],[21.251608,48.685936],[21.249729,48.686062],[21.249516,48.685996],[21.249294,48.685769],[21.248996,48.685766],[21.24861,48.685996],[21.248117,48.685918],[21.247533,48.685695],[21.246423,48.685773],[21.245571,48.686721],[21.24494,48.686882],[21.24447,48.687252],[21.243047,48.68776],[21.24187,48.688428],[21.241029,48.688431],[21.240514,48.688604],[21.240137,48.688978],[21.239848,48.689081],[21.239222,48.689009],[21.23818,48.689259],[21.237924,48.68925],[21.237172,48.68954],[21.236583,48.689652],[21.236077,48.689965],[21.235076,48.690047],[21.232281,48.691441],[21.231953,48.691464],[21.231076,48.691867]]]]}},{"type":"Feature","properties":{"name":"Kavečany","slug":"kavecany","osm_relation":1593422,"in":{"en":"in Kavečany","sk":"v Kavečanoch"}},"geometry":{"type":"MultiPolygon","coordinates":[[[[21.181335,48.80211],[21.184092,48.800681],[21.18761,48.799415],[21.188752,48.798799],[21.189037,48.798769],[21.189243,48.798603],[21.189519,48.79853],[21.191391,48.79827],[21.192527,48.79822],[21.194198,48.79792],[21.195112,48.798188],[21.196103,48.79836],[21.19625,48.798462],[21.197682,48.798693],[21.198582,48.798765],[21.199134,48.798701],[21.199571,48.798854],[21.200882,48.798902],[21.202515,48.798765],[21.202598,48.798493],[21.202812,48.798475],[21.203396,48.79819],[21.203977,48.797758],[21.204324,48.797311],[21.204605,48.797083],[21.205334,48.796866],[21.206046,48.796371],[21.206355,48.795938],[21.206751,48.795608],[21.20765,48.795041],[21.207528,48.794674],[21.207085,48.794029],[21.207074,48.793198],[21.207372,48.792667],[21.210233,48.79185],[21.211123,48.791732],[21.211472,48.791805],[21.212599,48.791418],[21.214333,48.790195],[21.214688,48.78977],[21.215998,48.789012],[21.216101,48.788991],[21.216307,48.789433],[21.216559,48.789726],[21.216554,48.789953],[21.21709,48.790259],[21.217248,48.789839],[21.217569,48.78995],[21.217812,48.789897],[21.218088,48.78971],[21.217743,48.78944],[21.217551,48.788925],[21.217675,48.78883],[21.219094,48.78928],[21.219568,48.789129],[21.219641,48.788933],[21.219368,48.788723],[21.218931,48.788633],[21.218638,48.788475],[21.217019,48.788191],[21.216992,48.787797],[21.217264,48.787482],[21.217473,48.787046],[21.217454,48.786834],[21.21721,48.786679],[21.217142,48.786507],[21.216977,48.786379],[21.217782,48.786038],[21.218314,48.786124],[21.218857,48.786099],[21.219244,48.785979],[21.219374,48.785762],[21.219497,48.785817],[21.21946,48.785584],[21.219679,48.785579],[21.220213,48.785356],[21.220527,48.785059],[21.221062,48.785202],[21.221662,48.785097],[21.221715,48.785162],[21.222521,48.784882],[21.222689,48.785082],[21.223148,48.784686],[21.223549,48.784894],[21.224136,48.784597],[21.224395,48.784804],[21.224679,48.78467],[21.224879,48.784788],[21.22544,48.78418],[21.225778,48.784228],[21.227353,48.78322],[21.227699,48.78334],[21.228419,48.782905],[21.228695,48.782578],[21.229111,48.781785],[21.228556,48.781616],[21.228511,48.781664],[21.228423,48.78107],[21.227321,48.780481],[21.226758,48.780315],[21.226333,48.780643],[21.225303,48.780821],[21.22458,48.781202],[21.224398,48.781473],[21.223857,48.781695],[21.223821,48.781427],[21.2233,48.781336],[21.223554,48.781242],[21.223708,48.781078],[21.223506,48.780977],[21.223624,48.780811],[21.224881,48.779648],[21.225155,48.779488],[21.225777,48.779546],[21.225622,48.77931],[21.226368,48.778709],[21.226542,48.778337],[21.225961,48.778177],[21.226129,48.778025],[21.225122,48.777689],[21.224985,48.777485],[21.225075,48.77735],[21.226419,48.77761],[21.226992,48.777857],[21.227586,48.77787],[21.227964,48.777606],[21.228863,48.776624],[21.229493,48.776812],[21.229553,48.776504],[21.228833,48.776315],[21.228343,48.775966],[21.226765,48.77527],[21.226142,48.775249],[21.225227,48.775011],[21.224816,48.775115],[21.224116,48.77486],[21.223794,48.774328],[21.223968,48.774208],[21.224978,48.774209],[21.225222,48.774427],[21.225985,48.77418],[21.22619,48.774247],[21.226378,48.774207],[21.226708,48.774401],[21.22687,48.774373],[21.226851,48.773449],[21.226996,48.773329],[21.22707,48.772996],[21.227284,48.772923],[21.227301,48.772715],[21.227492,48.772403],[21.227324,48.772447],[21.227235,48.772314],[21.227758,48.772154],[21.227812,48.772009],[21.228218,48.771711],[21.228212,48.771429],[21.228123,48.771288],[21.226986,48.770423],[21.226597,48.769779],[21.226369,48.769631],[21.22565,48.769369],[21.224891,48.769504],[21.224605,48.769433],[21.225,48.768619],[21.225086,48.76826],[21.224737,48.76522],[21.224809,48.764786],[21.225068,48.764272],[21.224616,48.763993],[21.225644,48.763478],[21.22647,48.76265],[21.225891,48.761729],[21.225291,48.761325],[21.223653,48.761026],[21.223393,48.761529],[21.223081,48.761884],[21.22249,48.762031],[21.222197,48.762223],[21.22135,48.762387],[21.220486,48.762515],[21.220209,48.762386],[21.219765,48.762696],[21.219587,48.763106],[21.217579,48.761651],[21.215666,48.760512],[21.215493,48.760625],[21.215395,48.760498],[21.214879,48.760264],[21.214473,48.759768],[21.214087,48.759671],[21.214495,48.759361],[21.214827,48.758891],[21.214411,48.758618],[21.212089,48.757732],[21.211656,48.75743],[21.211367,48.757602],[21.211178,48.757861],[21.210982,48.757797],[21.209531,48.757875],[21.208844,48.758059],[21.208551,48.758521],[21.208111,48.758261],[21.206994,48.75828],[21.203855,48.757856],[21.203175,48.75818],[21.202963,48.758146],[21.202816,48.757839],[21.202578,48.757651],[21.20259,48.756974],[21.202436,48.756486],[21.201341,48.756442],[21.201138,48.756343],[21.199319,48.756625],[21.198819,48.756845],[21.198443,48.757431],[21.198281,48.758034],[21.198335,48.758075],[21.198159,48.758286],[21.19801,48.758685],[21.198016,48.759057],[21.19793,48.759345],[21.197769,48.759464],[21.197704,48.760085],[21.197857,48.761196],[21.196822,48.76128],[21.196398,48.761431],[21.195656,48.761539],[21.194747,48.761883],[21.194847,48.762111],[21.19507,48.762226],[21.195776,48.763211],[21.195763,48.7635],[21.195923,48.764086],[21.196017,48.765071],[21.19602,48.766098],[21.195794,48.766277],[21.194801,48.766624],[21.193551,48.766595],[21.193557,48.767178],[21.193335,48.767318],[21.193206,48.767607],[21.192959,48.76782],[21.192036,48.768481],[21.192215,48.768908],[21.193027,48.769663],[21.193023,48.769846],[21.192572,48.770285],[21.19227,48.770409],[21.191651,48.771137],[21.191472,48.77123],[21.191478,48.771374],[21.191208,48.771778],[21.19126,48.771877],[21.191147,48.772254],[21.19142,48.77262],[21.191392,48.772879],[21.191207,48.772946],[21.191186,48.773132],[21.191341,48.773315],[21.191456,48.773282],[21.191483,48.773387],[21.191377,48.773462],[21.19143,48.773611],[21.19104,48.773636],[21.19123,48.774041],[21.191235,48.774823],[21.191341,48.774977],[21.191155,48.77532],[21.191868,48.775171],[21.192004,48.775214],[21.191944,48.775272],[21.192211,48.775513],[21.191561,48.775865],[21.191467,48.775761],[21.191271,48.776005],[21.190889,48.776165],[21.190543,48.776218],[21.190444,48.776164],[21.190335,48.776266],[21.189921,48.776302],[21.189092,48.777382],[21.188788,48.777588],[21.188327,48.778156],[21.187867,48.779317],[21.188073,48.779755],[21.187861,48.780342],[21.187888,48.780663],[21.187752,48.781332],[21.187644,48.781517],[21.187402,48.78255],[21.187263,48.782894],[21.18657,48.78371],[21.185021,48.786679],[21.184992,48.787232],[21.185085,48.787637],[21.184774,48.788733],[21.184754,48.789751],[21.184635,48.790247],[21.184051,48.791404],[21.183751,48.792386],[21.183737,48.792971],[21.18314,48.793634],[21.182344,48.794147],[21.181298,48.795384],[21.180921,48.795693],[21.181023,48.795982],[21.180697,48.796396],[21.180632,48.796725],[21.180902,48.797245],[21.180852,48.797889],[21.181054,48.798226],[21.181047,48.798373],[21.180696,48.799083],[21.180535,48.799261],[21.180603,48.799594],[21.180453,48.799767],[21.180436,48.799924],[21.180232,48.800232],[21.179712,48.800588],[21.179684,48.800814],[21.180051,48.801139],[21.180964,48.801611],[21.181002,48.801873],[21.181215,48.802113],[21.181335,48.80211]]]]}},{"type":"Feature","properties":{"name":"Košická Nová Ves","slug":"kosicka-nova-ves","osm_relation":1697727,"in":{"en":"in Košická Nová Ves","sk":"v Košickej Novej Vsi"}},"geometry":{"type":"MultiPolygon","coordinates":[[[[21.293025,48.723858],[21.292693,48.723946],[21.292635,48.724127],[21.292292,48.725779],[21.292176,48.726029],[21.291699,48.728907],[21.291738,48.72912],[21.291567,48.729025],[21.291072,48.729101],[21.290647,48.729306],[21.290499,48.729506],[21.290903,48.72976],[21.29105,48.729988],[21.290914,48.731967],[21.29159,48.732493],[21.292345,48.732786],[21.291731,48.734597],[21.292013,48.734641],[21.291735,48.735668],[21.291399,48.735596],[21.291136,48.735802],[21.290302,48.738271],[21.290133,48.738288],[21.290122,48.738409],[21.289672,48.738514],[21.289587,48.739335],[21.289638,48.739408],[21.289561,48.739406],[21.289539,48.7397],[21.289966,48.739933],[21.289675,48.741365],[21.290535,48.741596],[21.290639,48.741405],[21.291794,48.741672],[21.291933,48.741617],[21.292117,48.741671],[21.292279,48.74122],[21.29321,48.73944],[21.294278,48.739635],[21.294383,48.739521],[21.294515,48.738887],[21.294785,48.73859],[21.295191,48.738654],[21.295397,48.738547],[21.296066,48.738714],[21.296174,48.738591],[21.296676,48.738563],[21.297158,48.738154],[21.297999,48.737133],[21.297665,48.736516],[21.298524,48.737093],[21.300058,48.73709],[21.300657,48.736373],[21.300977,48.736428],[21.301214,48.735991],[21.301715,48.735795],[21.302185,48.735927],[21.302131,48.736048],[21.302722,48.736615],[21.302559,48.736097],[21.302644,48.735745],[21.304402,48.736178],[21.304829,48.735635],[21.307128,48.735338],[21.308611,48.735237],[21.308555,48.734946],[21.308315,48.734673],[21.308672,48.734658],[21.308574,48.734753],[21.308633,48.734844],[21.309027,48.734994],[21.309319,48.735285],[21.310277,48.735142],[21.310912,48.734451],[21.311241,48.734527],[21.311587,48.734819],[21.311882,48.734889],[21.312597,48.73479],[21.313239,48.734574],[21.31553,48.735002],[21.317365,48.735016],[21.318078,48.734935],[21.318756,48.734819],[21.319397,48.7346],[21.320391,48.734152],[21.321244,48.733528],[21.321422,48.733603],[21.321492,48.733551],[21.321326,48.733451],[21.322062,48.732559],[21.322501,48.731724],[21.322883,48.731208],[21.32336,48.730864],[21.323402,48.730735],[21.323201,48.73051],[21.323393,48.730178],[21.324635,48.728714],[21.325039,48.728383],[21.325316,48.728343],[21.325588,48.728377],[21.326188,48.728772],[21.325828,48.727777],[21.320624,48.72675],[21.320948,48.726074],[21.321106,48.724701],[21.320955,48.723773],[21.32024,48.721306],[21.320172,48.72085],[21.32055,48.720897],[21.321162,48.720799],[21.321424,48.720852],[21.321314,48.720752],[21.321424,48.720538],[21.321853,48.720525],[21.322293,48.720384],[21.32239,48.719891],[21.322848,48.719916],[21.324091,48.719236],[21.324092,48.71909],[21.324433,48.719027],[21.32549,48.718365],[21.326186,48.718121],[21.326624,48.718137],[21.327099,48.7179],[21.327154,48.717696],[21.327668,48.717587],[21.32804,48.717614],[21.328441,48.717456],[21.328596,48.717596],[21.329668,48.717369],[21.329761,48.717294],[21.329737,48.717199],[21.330024,48.716983],[21.330013,48.71665],[21.329451,48.716126],[21.329095,48.715499],[21.328385,48.714978],[21.326622,48.714177],[21.324663,48.714734],[21.324716,48.714813],[21.324163,48.715441],[21.323697,48.716585],[21.322951,48.716474],[21.321656,48.716085],[21.321308,48.716368],[21.320355,48.713618],[21.319277,48.713832],[21.319225,48.713606],[21.320462,48.713281],[21.320064,48.712605],[21.319637,48.712698],[21.319361,48.712255],[21.317615,48.712571],[21.314184,48.712503],[21.313791,48.712421],[21.312866,48.711991],[21.311631,48.712179],[21.311322,48.712133],[21.309337,48.712351],[21.30876,48.712566],[21.308147,48.712513],[21.307574,48.71259],[21.306859,48.712537],[21.306484,48.712291],[21.30627,48.712329],[21.305485,48.712136],[21.304741,48.712155],[21.304589,48.712005],[21.304316,48.71191],[21.303843,48.711869],[21.3036,48.71192],[21.302652,48.712751],[21.301825,48.713104],[21.301422,48.713441],[21.29898,48.714425],[21.298242,48.715221],[21.297199,48.715066],[21.295968,48.715024],[21.29606,48.714774],[21.295929,48.714166],[21.294544,48.713887],[21.294409,48.713588],[21.293596,48.713503],[21.293704,48.714588],[21.293559,48.715686],[21.293624,48.717634],[21.294344,48.719444],[21.294797,48.720107],[21.296043,48.721605],[21.296113,48.721907],[21.295286,48.722562],[21.294299,48.723073],[21.293459,48.72372],[21.293225,48.723857],[21.293025,48.723858]]]]}},{"type":"Feature","properties":{"name":"Krásna","slug":"krasna","osm_relation":1698622,"in":{"en":"in Krásna","sk":"v Krásnej"}},"geometry":{"type":"MultiPolygon","coordinates":[[[[21.291326,48.672071],[21.292258,48.672064],[21.292348,48.672131],[21.293124,48.671746],[21.295473,48.671676],[21.295471,48.671617],[21.295694,48.671614],[21.295701,48.671755],[21.295441,48.671761],[21.29544,48.671877],[21.297264,48.671801],[21.297363,48.671902],[21.297327,48.671967],[21.296579,48.672427],[21.296603,48.672964],[21.2974,48.67295],[21.297454,48.673032],[21.299567,48.672983],[21.300218,48.672717],[21.300387,48.67317],[21.301913,48.673549],[21.303649,48.671888],[21.30388,48.671928],[21.303794,48.671983],[21.303961,48.671929],[21.305366,48.672179],[21.305007,48.673135],[21.304454,48.673037],[21.304053,48.674033],[21.303304,48.673883],[21.303184,48.67407],[21.302974,48.674171],[21.302469,48.673951],[21.302351,48.674066],[21.303746,48.675343],[21.305176,48.675588],[21.30623,48.675941],[21.30693,48.676344],[21.30359,48.678678],[21.302546,48.679873],[21.301906,48.680766],[21.301258,48.681389],[21.300247,48.682123],[21.299957,48.682288],[21.296292,48.683536],[21.294914,48.684352],[21.293672,48.685337],[21.293745,48.685464],[21.293355,48.685764],[21.292381,48.687421],[21.292417,48.687537],[21.292989,48.687651],[21.293403,48.687592],[21.293544,48.687357],[21.294118,48.687844],[21.294031,48.687967],[21.294383,48.688062],[21.294182,48.688199],[21.293978,48.688749],[21.29402,48.690038],[21.294267,48.690095],[21.294103,48.690443],[21.294089,48.690689],[21.294495,48.690731],[21.294225,48.690861],[21.294641,48.690832],[21.294967,48.692378],[21.295425,48.692588],[21.295256,48.692823],[21.295338,48.693289],[21.295106,48.693716],[21.295163,48.693798],[21.29449,48.694372],[21.294389,48.694268],[21.294309,48.6943],[21.293095,48.695061],[21.293083,48.695295],[21.291793,48.697649],[21.291093,48.700038],[21.292851,48.700532],[21.293134,48.700785],[21.29373,48.701122],[21.293916,48.701285],[21.294414,48.702413],[21.294412,48.703177],[21.294266,48.703553],[21.294442,48.703777],[21.294574,48.704138],[21.294831,48.705241],[21.295249,48.705483],[21.295369,48.705671],[21.29536,48.70597],[21.294701,48.706823],[21.293251,48.707916],[21.293239,48.708034],[21.293878,48.708859],[21.296617,48.709316],[21.297118,48.709269],[21.297454,48.709053],[21.298215,48.709283],[21.298455,48.709431],[21.299346,48.709572],[21.30002,48.709924],[21.301266,48.710131],[21.302975,48.711322],[21.3036,48.71192],[21.304316,48.71191],[21.304589,48.712005],[21.304741,48.712155],[21.305485,48.712136],[21.30627,48.712329],[21.306484,48.712291],[21.306859,48.712537],[21.307574,48.71259],[21.308147,48.712513],[21.30876,48.712566],[21.309337,48.712351],[21.311322,48.712133],[21.311631,48.712179],[21.312866,48.711991],[21.313791,48.712421],[21.314184,48.712503],[21.317615,48.712571],[21.319361,48.712255],[21.321169,48.711761],[21.321213,48.7116],[21.321537,48.711542],[21.321828,48.711283],[21.322566,48.711076],[21.323196,48.710737],[21.323436,48.710697],[21.324249,48.710824],[21.324846,48.710812],[21.325489,48.710393],[21.326285,48.709398],[21.326521,48.708491],[21.327685,48.708235],[21.327475,48.707666],[21.330264,48.706818],[21.329754,48.705827],[21.329895,48.705798],[21.327799,48.701855],[21.328547,48.701618],[21.330152,48.700912],[21.330189,48.700156],[21.330058,48.699759],[21.329746,48.696104],[21.330248,48.696018],[21.330308,48.695504],[21.329641,48.694426],[21.329806,48.693367],[21.329798,48.692689],[21.329694,48.691934],[21.329238,48.690426],[21.328836,48.689594],[21.328953,48.689332],[21.329634,48.688912],[21.33069,48.688633],[21.33095,48.688322],[21.330584,48.687865],[21.330732,48.687253],[21.332328,48.68609],[21.333494,48.684658],[21.334626,48.684309],[21.335148,48.683648],[21.335015,48.683551],[21.33527,48.683253],[21.335863,48.682942],[21.336234,48.682929],[21.336366,48.683039],[21.337189,48.682877],[21.338079,48.682597],[21.33856,48.682263],[21.338721,48.682061],[21.338645,48.681527],[21.339096,48.680807],[21.339351,48.680757],[21.339713,48.680822],[21.339954,48.680491],[21.340336,48.680374],[21.34067,48.680067],[21.340678,48.679892],[21.340515,48.679644],[21.340692,48.679395],[21.341528,48.679143],[21.342434,48.678428],[21.342346,48.678425],[21.342036,48.677784],[21.342041,48.677331],[21.341816,48.677142],[21.342245,48.676734],[21.34265,48.676575],[21.343564,48.67663],[21.344221,48.676765],[21.344816,48.676605],[21.345555,48.675943],[21.34643,48.675976],[21.347033,48.675798],[21.34737,48.675446],[21.347421,48.675103],[21.34695,48.674243],[21.346644,48.674099],[21.349933,48.674188],[21.349037,48.670695],[21.349259,48.666584],[21.349479,48.659368],[21.349423,48.659156],[21.352009,48.658283],[21.355278,48.65739],[21.355093,48.65621],[21.355097,48.655628],[21.35489,48.654754],[21.354975,48.654443],[21.354904,48.65406],[21.355008,48.653225],[21.355761,48.650735],[21.355541,48.650488],[21.355633,48.65009],[21.356303,48.648408],[21.357063,48.647314],[21.357706,48.646697],[21.35805,48.645734],[21.358213,48.641721],[21.356648,48.64286],[21.354199,48.644353],[21.352776,48.644739],[21.351725,48.644688],[21.350412,48.644381],[21.348839,48.643834],[21.347863,48.643634],[21.345974,48.643566],[21.344452,48.643861],[21.343176,48.644331],[21.33937,48.646186],[21.338183,48.646441],[21.335792,48.646409],[21.333954,48.646493],[21.332811,48.646732],[21.331256,48.647599],[21.330314,48.648717],[21.329962,48.650313],[21.330066,48.651506],[21.329125,48.651472],[21.328979,48.651616],[21.328795,48.651628],[21.328682,48.651494],[21.328071,48.651431],[21.328195,48.651958],[21.328135,48.652668],[21.327885,48.653217],[21.327487,48.653751],[21.326678,48.654403],[21.325393,48.654842],[21.325457,48.654896],[21.32538,48.654927],[21.325317,48.654856],[21.323988,48.655349],[21.322732,48.656045],[21.321976,48.656928],[21.321592,48.657188],[21.321412,48.657558],[21.32122,48.658557],[21.321342,48.658984],[21.321162,48.659104],[21.321151,48.659331],[21.320811,48.659323],[21.320378,48.659501],[21.31716,48.659654],[21.315149,48.660001],[21.313881,48.660365],[21.312719,48.660823],[21.308789,48.662897],[21.308515,48.662638],[21.308363,48.66262],[21.306991,48.663624],[21.305065,48.664698],[21.304699,48.665102],[21.304449,48.665264],[21.304352,48.665185],[21.302339,48.666315],[21.298106,48.66837],[21.293561,48.670755],[21.291326,48.672071]]]]}},{"type":"Feature","properties":{"name":"Lorinčík","slug":"lorincik","osm_relation":1692756,"in":{"en":"in Lorinčík","sk":"v Lorinčíku"}},"geometry":{"type":"MultiPolygon","coordinates":[[[[21.178464,48.697232],[21.178854,48.697337],[21.179741,48.697832],[21.180475,48.697626],[21.181021,48.697637],[21.182115,48.697474],[21.182955,48.697704],[21.184801,48.697889],[21.186968,48.698279],[21.187704,48.698292],[21.190096,48.697293],[21.192579,48.697014],[21.193062,48.697022],[21.193802,48.696714],[21.194678,48.695931],[21.19528,48.695839],[21.195844,48.696059],[21.196584,48.695989],[21.197063,48.695687],[21.197956,48.695662],[21.199202,48.695293],[21.199924,48.694855],[21.201579,48.695028],[21.20188,48.694994],[21.202034,48.694877],[21.202845,48.694668],[21.203266,48.694411],[21.20318,48.694349],[21.202821,48.694464],[21.20253,48.694421],[21.200039,48.692811],[21.200002,48.692236],[21.200129,48.691987],[21.201251,48.69123],[21.199658,48.690165],[21.200399,48.68959],[21.202909,48.68792],[21.200289,48.686239],[21.198134,48.685027],[21.199432,48.684794],[21.201889,48.684588],[21.202322,48.684613],[21.203824,48.685272],[21.204037,48.686086],[21.204241,48.686387],[21.204878,48.686782],[21.205481,48.686989],[21.206092,48.687054],[21.206311,48.687014],[21.206641,48.686723],[21.206893,48.686616],[21.208552,48.686421],[21.208834,48.686307],[21.211493,48.684731],[21.212466,48.683954],[21.212606,48.683753],[21.212623,48.683554],[21.212836,48.683374],[21.213674,48.683179],[21.214865,48.683253],[21.215878,48.683017],[21.214747,48.682531],[21.213668,48.682377],[21.211549,48.682463],[21.210012,48.682769],[21.209368,48.682633],[21.20844,48.682312],[21.208052,48.682047],[21.207186,48.681159],[21.206799,48.680925],[21.206253,48.680722],[21.205247,48.680597],[21.203196,48.680606],[21.202174,48.68072],[21.201133,48.681104],[21.198366,48.68243],[21.194359,48.683195],[21.192328,48.683221],[21.188677,48.683107],[21.188026,48.682897],[21.187644,48.68268],[21.187293,48.682306],[21.186495,48.68004],[21.186082,48.679546],[21.182861,48.677668],[21.181527,48.676654],[21.180677,48.676111],[21.18051,48.676576],[21.180634,48.677513],[21.180949,48.678503],[21.181255,48.679169],[21.181316,48.680317],[21.180792,48.681626],[21.180488,48.685139],[21.18112,48.686334],[21.181201,48.687051],[21.181953,48.688941],[21.182016,48.689323],[21.181887,48.690037],[21.181401,48.691467],[21.181362,48.692109],[21.180907,48.692919],[21.18076,48.693591],[21.180023,48.695192],[21.180028,48.695688],[21.179874,48.695999],[21.178746,48.696873],[21.178464,48.697232]]]]}},{"type":"Feature","properties":{"name":"Luník IX","slug":"lunik-ix","osm_relation":1692752,"in":{"en":"in Luník IX","sk":"na Luníku IX"}},"geometry":{"type":"MultiPolygon","coordinates":[[[[21.214188,48.692296],[21.214056,48.692228],[21.213969,48.692057],[21.214537,48.691306],[21.214754,48.691398],[21.215299,48.6913],[21.215609,48.690962],[21.215554,48.690919],[21.216149,48.690589],[21.216103,48.690552],[21.216267,48.69043],[21.21697,48.690153],[21.217399,48.689696],[21.217693,48.689586],[21.218156,48.689114],[21.218553,48.688512],[21.219234,48.688056],[21.220146,48.687683],[21.220702,48.687551],[21.221711,48.687002],[21.221971,48.687099],[21.221865,48.686867],[21.221975,48.686659],[21.222229,48.686554],[21.222436,48.686689],[21.22231,48.686883],[21.222335,48.687057],[21.222933,48.687549],[21.224395,48.688531],[21.228393,48.690727],[21.230591,48.692168],[21.231076,48.691867],[21.233252,48.694069],[21.233104,48.694291],[21.232683,48.694501],[21.230748,48.695232],[21.230394,48.695598],[21.229471,48.696105],[21.229204,48.696643],[21.228004,48.69748],[21.227347,48.697749],[21.22726,48.697977],[21.226822,48.698509],[21.226424,48.698731],[21.225583,48.698935],[21.224277,48.699672],[21.222914,48.699999],[21.222534,48.700205],[21.221741,48.700023],[21.220211,48.699504],[21.219962,48.699107],[21.220057,48.699005],[21.220443,48.698913],[21.220393,48.698718],[21.220109,48.698476],[21.219315,48.698106],[21.218908,48.698353],[21.218538,48.698084],[21.218945,48.697834],[21.218861,48.697643],[21.219736,48.696689],[21.21966,48.696208],[21.220865,48.694519],[21.220691,48.694205],[21.219891,48.693778],[21.219825,48.693421],[21.219592,48.692954],[21.21863,48.693326],[21.217992,48.693697],[21.21698,48.693892],[21.21588,48.694767],[21.215064,48.694464],[21.214695,48.694508],[21.214465,48.694689],[21.214123,48.694548],[21.214421,48.694378],[21.214313,48.694175],[21.214022,48.694035],[21.214626,48.693673],[21.214577,48.69357],[21.214629,48.693452],[21.2145,48.69312],[21.21428,48.69327],[21.214108,48.693154],[21.214797,48.692728],[21.214741,48.692569],[21.214278,48.692399],[21.214188,48.692296]]]]}},{"type":"Feature","properties":{"name":"Myslava","slug":"myslava","osm_relation":1692753,"in":{"en":"in Myslava","sk":"v Myslave"}},"geometry":{"type":"MultiPolygon","coordinates":[[[[21.169976,48.72345],[21.170003,48.723586],[21.169618,48.723798],[21.168801,48.724035],[21.16926,48.725538],[21.169155,48.725979],[21.169681,48.726449],[21.169822,48.726492],[21.169818,48.726642],[21.170269,48.727119],[21.170238,48.727222],[21.170344,48.727292],[21.170428,48.727983],[21.170337,48.728456],[21.170399,48.728877],[21.171769,48.730233],[21.171795,48.730334],[21.173274,48.730197],[21.174057,48.730203],[21.174404,48.730917],[21.176006,48.730869],[21.17637,48.731047],[21.176303,48.731196],[21.176642,48.731192],[21.177529,48.731623],[21.1785,48.731536],[21.179259,48.731684],[21.178618,48.732705],[21.178542,48.732969],[21.178596,48.733276],[21.179326,48.733108],[21.180431,48.733079],[21.18043,48.733],[21.180941,48.733033],[21.181008,48.731812],[21.180785,48.731628],[21.180621,48.731246],[21.180833,48.731103],[21.182366,48.731066],[21.183461,48.731267],[21.184357,48.731104],[21.184531,48.731142],[21.185068,48.731422],[21.185671,48.731907],[21.186069,48.732367],[21.186156,48.732345],[21.186409,48.731982],[21.186597,48.731525],[21.187245,48.730913],[21.188787,48.730063],[21.188818,48.729974],[21.189205,48.729743],[21.189931,48.729521],[21.191338,48.729774],[21.191762,48.729404],[21.191972,48.729474],[21.192113,48.729252],[21.193389,48.728577],[21.194919,48.728442],[21.195103,48.728344],[21.195334,48.72835],[21.195538,48.728471],[21.19559,48.728385],[21.196218,48.728243],[21.196878,48.727917],[21.197588,48.727836],[21.198329,48.727479],[21.199027,48.726922],[21.198944,48.726864],[21.201867,48.725572],[21.202561,48.724546],[21.202968,48.723504],[21.203544,48.722773],[21.204086,48.721665],[21.204442,48.721348],[21.204881,48.721263],[21.204818,48.720391],[21.205257,48.719515],[21.206093,48.716492],[21.20605,48.716132],[21.206674,48.714279],[21.206572,48.714183],[21.206611,48.713824],[21.20543,48.713362],[21.20541,48.712834],[21.205025,48.711955],[21.206716,48.712556],[21.207379,48.710948],[21.207977,48.710895],[21.208858,48.71122],[21.209002,48.71092],[21.208303,48.710768],[21.208171,48.710602],[21.212153,48.708075],[21.214013,48.706708],[21.215634,48.70621],[21.216345,48.706373],[21.217181,48.705697],[21.217287,48.705498],[21.218559,48.705198],[21.219068,48.705572],[21.219453,48.705611],[21.219558,48.705701],[21.220234,48.705556],[21.220701,48.704895],[21.220558,48.704806],[21.220467,48.704607],[21.219824,48.702511],[21.220083,48.702005],[21.220662,48.701524],[21.220694,48.701155],[21.221426,48.700731],[21.221563,48.700565],[21.221691,48.700003],[21.220211,48.699504],[21.219962,48.699107],[21.220057,48.699005],[21.220443,48.698913],[21.220393,48.698718],[21.220109,48.698476],[21.219315,48.698106],[21.218908,48.698353],[21.218538,48.698084],[21.218945,48.697834],[21.218861,48.697643],[21.219736,48.696689],[21.21966,48.696208],[21.220865,48.694519],[21.220691,48.694205],[21.219891,48.693778],[21.219825,48.693421],[21.219592,48.692954],[21.21863,48.693326],[21.217992,48.693697],[21.21698,48.693892],[21.21588,48.694767],[21.215064,48.694464],[21.214695,48.694508],[21.214465,48.694689],[21.214123,48.694548],[21.214421,48.694378],[21.214313,48.694175],[21.214022,48.694035],[21.214626,48.693673],[21.214577,48.69357],[21.214629,48.693452],[21.2145,48.69312],[21.21428,48.69327],[21.214108,48.693154],[21.214797,48.692728],[21.214741,48.692569],[21.214278,48.692399],[21.214188,48.692296],[21.213646,48.692473],[21.213217,48.692942],[21.212547,48.693314],[21.212511,48.693495],[21.212193,48.693886],[21.211853,48.694067],[21.211722,48.694186],[21.21174,48.694296],[21.2111,48.694645],[21.210745,48.694968],[21.210597,48.695051],[21.2105,48.694986],[21.209834,48.695298],[21.209062,48.695802],[21.208487,48.696027],[21.206828,48.695746],[21.204735,48.694602],[21.204363,48.694842],[21.203517,48.694249],[21.202845,48.694668],[21.202034,48.694877],[21.20188,48.694994],[21.201342,48.695041],[21.199924,48.694855],[21.199547,48.695113],[21.199747,48.695586],[21.199752,48.695866],[21.199454,48.696735],[21.199098,48.69715],[21.198161,48.698582],[21.197667,48.69998],[21.197145,48.700556],[21.196587,48.700979],[21.193796,48.70275],[21.194308,48.703032],[21.194117,48.703419],[21.193932,48.703479],[21.19393,48.703661],[21.194094,48.703952],[21.193805,48.704172],[21.193772,48.704429],[21.193475,48.70499],[21.193109,48.705304],[21.192768,48.705803],[21.191376,48.706942],[21.190181,48.707246],[21.189659,48.708016],[21.188911,48.708679],[21.188764,48.709231],[21.188761,48.709635],[21.187699,48.710437],[21.187328,48.711068],[21.187096,48.711101],[21.186497,48.711581],[21.185822,48.712432],[21.185424,48.712668],[21.185344,48.712836],[21.184935,48.71299],[21.185095,48.713473],[21.185335,48.713792],[21.185426,48.714272],[21.185623,48.714586],[21.185712,48.715245],[21.186211,48.716376],[21.185916,48.71672],[21.186129,48.7169],[21.186175,48.717112],[21.186256,48.717163],[21.186195,48.717331],[21.185573,48.717463],[21.185497,48.717412],[21.184767,48.717699],[21.184259,48.717723],[21.182444,48.71848],[21.182804,48.718807],[21.182633,48.7189],[21.183179,48.719597],[21.18272,48.719796],[21.18255,48.719985],[21.182503,48.720174],[21.181137,48.720646],[21.180858,48.720963],[21.180376,48.721257],[21.180182,48.721499],[21.180179,48.721663],[21.179942,48.721817],[21.179989,48.721863],[21.179527,48.72204],[21.179006,48.722125],[21.178133,48.722565],[21.1769,48.723442],[21.175472,48.724146],[21.174842,48.724303],[21.173694,48.724326],[21.172789,48.724062],[21.172852,48.723995],[21.172357,48.723798],[21.170882,48.723519],[21.169976,48.72345]]]]}},{"type":"Feature","properties":{"name":"Nad jazerom","slug":"nad-jazerom","osm_relation":1698620,"in":{"en":"in Nad jazerom","sk":"na Jazere"}},"geometry":{"type":"MultiPolygon","coordinates":[[[[21.276015,48.682289],[21.2765,48.6823],[21.275965,48.68297],[21.275397,48.683995],[21.275243,48.684515],[21.274882,48.685236],[21.274214,48.686217],[21.274086,48.687198],[21.273632,48.688582],[21.27296,48.690009],[21.273141,48.689899],[21.2786,48.691091],[21.278204,48.691094],[21.278189,48.691216],[21.279159,48.691462],[21.279574,48.691688],[21.279896,48.691973],[21.280199,48.692527],[21.280278,48.69346],[21.280392,48.693507],[21.280576,48.694855],[21.280751,48.698211],[21.280638,48.698455],[21.280698,48.698495],[21.280623,48.699036],[21.280866,48.698979],[21.280758,48.699637],[21.28182,48.699305],[21.283567,48.698941],[21.283604,48.698987],[21.284486,48.698609],[21.285468,48.698018],[21.292006,48.692129],[21.292452,48.691584],[21.292837,48.690843],[21.292945,48.690072],[21.293211,48.689963],[21.29339,48.689744],[21.29337,48.689635],[21.293161,48.689899],[21.293014,48.689858],[21.292963,48.689614],[21.293219,48.689262],[21.293412,48.688448],[21.293565,48.688201],[21.293789,48.688109],[21.294034,48.688107],[21.294182,48.688199],[21.294383,48.688062],[21.294031,48.687967],[21.294118,48.687844],[21.293544,48.687357],[21.293403,48.687592],[21.292989,48.687651],[21.292417,48.687537],[21.292381,48.687421],[21.293355,48.685764],[21.293745,48.685464],[21.293672,48.685337],[21.294914,48.684352],[21.29596,48.683684],[21.299957,48.682288],[21.300247,48.682123],[21.301258,48.681389],[21.301906,48.680766],[21.302546,48.679873],[21.30359,48.678678],[21.30693,48.676344],[21.30623,48.675941],[21.305176,48.675588],[21.303746,48.675343],[21.302351,48.674066],[21.302469,48.673951],[21.302974,48.674171],[21.303184,48.67407],[21.303304,48.673883],[21.304053,48.674033],[21.304454,48.673037],[21.305007,48.673135],[21.305366,48.672179],[21.303961,48.671929],[21.303794,48.671983],[21.30388,48.671928],[21.303649,48.671888],[21.301913,48.673549],[21.300387,48.67317],[21.300218,48.672717],[21.299567,48.672983],[21.297454,48.673032],[21.2974,48.67295],[21.296603,48.672964],[21.296579,48.672427],[21.297327,48.671967],[21.297363,48.671902],[21.297264,48.671801],[21.29544,48.671877],[21.295441,48.671761],[21.295701,48.671755],[21.295694,48.671614],[21.295471,48.671617],[21.295473,48.671676],[21.293124,48.671746],[21.292348,48.672131],[21.292258,48.672064],[21.291326,48.672071],[21.291212,48.672258],[21.289324,48.67319],[21.289555,48.673339],[21.289136,48.673589],[21.287753,48.67434],[21.287654,48.674294],[21.286882,48.674646],[21.286894,48.674732],[21.282088,48.677279],[21.280847,48.678071],[21.279843,48.678758],[21.27725,48.680932],[21.276015,48.682289]]]]}},{"type":"Feature","properties":{"name":"Pereš","slug":"peres","osm_relation":1692751,"in":{"en":"in Pereš","sk":"na Pereši"}},"geometry":{"type":"MultiPolygon","coordinates":[[[[21.203266,48.694411],[21.20318,48.694349],[21.202673,48.694463],[21.202304,48.694309],[21.200039,48.692811],[21.200002,48.692236],[21.200129,48.691987],[21.201251,48.69123],[21.199658,48.690165],[21.200399,48.68959],[21.202909,48.68792],[21.200289,48.686239],[21.198134,48.685027],[21.199432,48.684794],[21.201889,48.684588],[21.202322,48.684613],[21.203824,48.685272],[21.204037,48.686086],[21.204241,48.686387],[21.204878,48.686782],[21.205481,48.686989],[21.206092,48.687054],[21.206311,48.687014],[21.206641,48.686723],[21.206893,48.686616],[21.208646,48.686402],[21.211493,48.684731],[21.212466,48.683954],[21.212606,48.683753],[21.212623,48.683554],[21.212836,48.683374],[21.213674,48.683179],[21.214865,48.683253],[21.215878,48.683017],[21.215937,48.682448],[21.216033,48.682416],[21.219478,48.685143],[21.22211,48.686236],[21.222083,48.686589],[21.221865,48.686867],[21.221971,48.687099],[21.221711,48.687002],[21.220702,48.687551],[21.220146,48.687683],[21.219029,48.688189],[21.218553,48.688512],[21.218003,48.6893],[21.217693,48.689586],[21.217399,48.689696],[21.21697,48.690153],[21.216267,48.69043],[21.216103,48.690552],[21.216149,48.690589],[21.215554,48.690919],[21.215609,48.690962],[21.215299,48.6913],[21.214754,48.691398],[21.214537,48.691306],[21.213969,48.692057],[21.214056,48.692228],[21.214188,48.692296],[21.213646,48.692473],[21.213217,48.692942],[21.212547,48.693314],[21.212511,48.693495],[21.2123,48.693756],[21.211722,48.694186],[21.21174,48.694296],[21.2111,48.694645],[21.210597,48.695051],[21.2105,48.694986],[21.209834,48.695298],[21.209062,48.695802],[21.208487,48.696027],[21.206828,48.695746],[21.204735,48.694602],[21.204363,48.694842],[21.203517,48.694249],[21.203266,48.694411]]]]}},{"type":"Feature","properties":{"name":"Poľov","slug":"polov","osm_relation":1692755,"in":{"en":"in Poľov","sk":"v Poľove"}},"geometry":{"type":"MultiPolygon","coordinates":[[[[21.175614,48.655496],[21.176021,48.654919],[21.177508,48.654652],[21.178884,48.653995],[21.181869,48.653653],[21.183192,48.653375],[21.183299,48.653449],[21.188361,48.65248],[21.189971,48.651797],[21.190429,48.651726],[21.1918,48.651234],[21.19237,48.650806],[21.192417,48.650521],[21.192683,48.650146],[21.193497,48.649814],[21.194641,48.649602],[21.19492,48.649358],[21.195764,48.649265],[21.198493,48.648647],[21.20287,48.647921],[21.203261,48.647912],[21.203654,48.647691],[21.214576,48.646155],[21.214985,48.645897],[21.222193,48.644888],[21.222897,48.645271],[21.223849,48.645474],[21.225882,48.646524],[21.227391,48.64714],[21.229167,48.64823],[21.234229,48.649166],[21.235597,48.648757],[21.236379,48.648822],[21.236919,48.648774],[21.237959,48.648412],[21.23925,48.647769],[21.239756,48.647287],[21.241818,48.64649],[21.242636,48.646014],[21.247221,48.645086],[21.248765,48.645007],[21.248562,48.6478],[21.247117,48.647656],[21.24555,48.647393],[21.243071,48.652843],[21.24388,48.652992],[21.242751,48.657151],[21.242294,48.657184],[21.241906,48.660549],[21.234361,48.66182],[21.232266,48.662791],[21.231279,48.663077],[21.230783,48.663398],[21.229894,48.663705],[21.227695,48.663976],[21.226318,48.663952],[21.223892,48.664119],[21.216654,48.668945],[21.216269,48.670814],[21.211485,48.670872],[21.213561,48.675551],[21.214789,48.678778],[21.215049,48.679199],[21.215454,48.680218],[21.215832,48.681457],[21.216409,48.682295],[21.215937,48.682448],[21.215878,48.683017],[21.214747,48.682531],[21.213668,48.682377],[21.211549,48.682463],[21.210012,48.682769],[21.209368,48.682633],[21.20844,48.682312],[21.208052,48.682047],[21.207186,48.681159],[21.206799,48.680925],[21.206253,48.680722],[21.205247,48.680597],[21.203196,48.680606],[21.202174,48.68072],[21.201133,48.681104],[21.198366,48.68243],[21.194359,48.683195],[21.18901,48.683155],[21.188315,48.683],[21.187644,48.68268],[21.187169,48.682103],[21.186495,48.68004],[21.186082,48.679546],[21.182861,48.677668],[21.181527,48.676654],[21.180677,48.676111],[21.181275,48.675415],[21.181521,48.674374],[21.18145,48.673069],[21.181571,48.672413],[21.182121,48.671678],[21.182447,48.671038],[21.182513,48.670471],[21.182407,48.669827],[21.181979,48.669007],[21.181901,48.66847],[21.181988,48.667903],[21.181884,48.667691],[21.181531,48.667411],[21.181003,48.666729],[21.180903,48.665934],[21.180542,48.66493],[21.180578,48.664543],[21.180404,48.663529],[21.180631,48.662719],[21.181079,48.662135],[21.181143,48.661463],[21.181094,48.660952],[21.180852,48.660586],[21.180332,48.660221],[21.179774,48.659433],[21.179384,48.659228],[21.178477,48.658251],[21.17796,48.65703],[21.176801,48.656504],[21.175888,48.655552],[21.175614,48.655496]]]]}},{"type":"Feature","properties":{"name":"Šaca","slug":"saca","osm_relation":1692754,"in":{"en":"in Šaca","sk":"v Šaci"}},"geometry":{"type":"MultiPolygon","coordinates":[[[[21.121685,48.655136],[21.121659,48.655192],[21.126201,48.657097],[21.131412,48.659466],[21.141486,48.664294],[21.142453,48.664614],[21.144613,48.665754],[21.145685,48.666189],[21.148894,48.667765],[21.150093,48.668273],[21.150836,48.668434],[21.150659,48.666618],[21.150012,48.666014],[21.148935,48.665232],[21.148412,48.664521],[21.148088,48.663193],[21.147574,48.661639],[21.147576,48.660777],[21.147906,48.659284],[21.148477,48.65866],[21.149809,48.657917],[21.152019,48.657149],[21.152538,48.656831],[21.154667,48.656841],[21.15502,48.656784],[21.155108,48.656671],[21.155967,48.65642],[21.158614,48.65609],[21.159676,48.655876],[21.160827,48.655825],[21.160797,48.655352],[21.166824,48.655281],[21.168793,48.655419],[21.168994,48.655556],[21.169128,48.655497],[21.171856,48.655578],[21.175546,48.655537],[21.176021,48.654919],[21.177508,48.654652],[21.178884,48.653995],[21.181869,48.653653],[21.183192,48.653375],[21.183299,48.653449],[21.188361,48.65248],[21.189971,48.651797],[21.190429,48.651726],[21.1918,48.651234],[21.19237,48.650806],[21.192417,48.650521],[21.192683,48.650146],[21.193497,48.649814],[21.194641,48.649602],[21.19492,48.649358],[21.195764,48.649265],[21.198493,48.648647],[21.20287,48.647921],[21.203261,48.647912],[21.203654,48.647691],[21.214576,48.646155],[21.214985,48.645897],[21.222193,48.644888],[21.220271,48.643698],[21.217012,48.642439],[21.219546,48.637355],[21.212803,48.636394],[21.210656,48.636016],[21.225227,48.623887],[21.228589,48.620948],[21.227127,48.617396],[21.227921,48.616334],[21.227875,48.613959],[21.229721,48.612844],[21.225718,48.611921],[21.226164,48.610857],[21.223993,48.610478],[21.224247,48.609765],[21.22698,48.604524],[21.228976,48.60477],[21.229405,48.60333],[21.229126,48.601729],[21.229299,48.601031],[21.231215,48.597834],[21.232831,48.595421],[21.231828,48.595282],[21.233196,48.591073],[21.23318,48.590589],[21.234381,48.590767],[21.235215,48.589063],[21.236091,48.589196],[21.23675,48.585511],[21.236642,48.585207],[21.236934,48.58447],[21.236985,48.583797],[21.237895,48.581711],[21.238623,48.579781],[21.240354,48.577331],[21.220558,48.570039],[21.182895,48.580906],[21.182209,48.581376],[21.174183,48.58932],[21.174416,48.589368],[21.177908,48.59124],[21.177234,48.591849],[21.17731,48.59192],[21.17692,48.592375],[21.175983,48.593128],[21.176603,48.593403],[21.176652,48.593611],[21.176964,48.59378],[21.175851,48.59474],[21.175427,48.594491],[21.174904,48.594372],[21.174851,48.593821],[21.171821,48.594159],[21.172022,48.595292],[21.17166,48.598002],[21.171452,48.598306],[21.171866,48.600016],[21.171204,48.600077],[21.171386,48.60037],[21.171233,48.60053],[21.171304,48.600825],[21.1717,48.601604],[21.171235,48.601697],[21.171708,48.602504],[21.171539,48.602559],[21.171926,48.603376],[21.173217,48.605595],[21.170487,48.606228],[21.170028,48.608376],[21.169992,48.609018],[21.170174,48.609819],[21.169793,48.610292],[21.169783,48.610483],[21.170201,48.61077],[21.170593,48.611479],[21.171339,48.612106],[21.171187,48.612454],[21.170787,48.612668],[21.170859,48.612897],[21.170323,48.613777],[21.171348,48.613965],[21.171534,48.614324],[21.1717,48.61524],[21.171243,48.6158],[21.170644,48.61567],[21.170748,48.616212],[21.170537,48.616197],[21.170399,48.616321],[21.17019,48.616315],[21.169987,48.616729],[21.170141,48.616912],[21.170011,48.617164],[21.170191,48.617374],[21.16993,48.617521],[21.167775,48.6173],[21.167534,48.617343],[21.166205,48.618296],[21.165462,48.619848],[21.164765,48.619765],[21.16136,48.61984],[21.159244,48.620133],[21.157136,48.620306],[21.145719,48.621099],[21.12149,48.619962],[21.121239,48.622374],[21.120836,48.623099],[21.120801,48.623431],[21.120852,48.623778],[21.120791,48.624273],[21.121315,48.625994],[21.12175,48.626811],[21.122715,48.628196],[21.122731,48.628347],[21.123456,48.628656],[21.124866,48.630409],[21.125068,48.630599],[21.125624,48.630895],[21.125815,48.631223],[21.126648,48.631801],[21.127124,48.632384],[21.127704,48.633328],[21.128178,48.634517],[21.128658,48.635304],[21.129383,48.636885],[21.129369,48.637068],[21.129643,48.637978],[21.12963,48.638677],[21.128606,48.640505],[21.128216,48.642053],[21.12805,48.643391],[21.127854,48.64389],[21.127469,48.644557],[21.126891,48.645325],[21.126235,48.646784],[21.125264,48.648101],[21.125089,48.648642],[21.124837,48.649101],[21.124616,48.650115],[21.124836,48.65048],[21.1249,48.65125],[21.124977,48.65135],[21.124912,48.651513],[21.124964,48.651812],[21.124676,48.652835],[21.124803,48.653197],[21.124492,48.653548],[21.124614,48.653691],[21.124503,48.653851],[21.124492,48.654113],[21.123946,48.654374],[21.123884,48.654573],[21.123339,48.654757],[21.122505,48.655201],[21.121685,48.655136]]]]}},{"type":"Feature","properties":{"name":"Šebastovce","slug":"sebastovce","osm_relation":1698619,"in":{"en":"in Šebastovce","sk":"v Šebastovciach"}},"geometry":{"type":"MultiPolygon","coordinates":[[[[21.241906,48.660549],[21.24602,48.660184],[21.249026,48.660013],[21.250674,48.660019],[21.252873,48.660161],[21.255575,48.660003],[21.256661,48.660073],[21.260232,48.660049],[21.263239,48.66022],[21.263305,48.660034],[21.265136,48.660322],[21.268129,48.660658],[21.268362,48.660625],[21.277055,48.661884],[21.2795,48.66212],[21.281912,48.662489],[21.286501,48.662897],[21.286415,48.662733],[21.286518,48.662599],[21.287116,48.662312],[21.287553,48.66223],[21.287739,48.662079],[21.288083,48.661413],[21.288468,48.660942],[21.288471,48.660538],[21.288668,48.660297],[21.288877,48.6602],[21.28934,48.660155],[21.289648,48.659979],[21.289738,48.659715],[21.29062,48.65864],[21.290848,48.658474],[21.291479,48.658429],[21.291481,48.657983],[21.29165,48.657579],[21.290272,48.657323],[21.28902,48.655861],[21.287924,48.654356],[21.287718,48.653936],[21.286806,48.653584],[21.286634,48.653093],[21.284986,48.652161],[21.284781,48.65186],[21.284221,48.651587],[21.284669,48.651285],[21.268903,48.644573],[21.269066,48.645545],[21.268768,48.645569],[21.252382,48.644877],[21.248765,48.645007],[21.248562,48.6478],[21.247117,48.647656],[21.24555,48.647393],[21.243071,48.652843],[21.24388,48.652992],[21.242751,48.657151],[21.242294,48.657184],[21.241906,48.660549]]]]}},{"type":"Feature","properties":{"name":"Sever","slug":"sever","osm_relation":1593424,"in":{"en":"in Sever","sk":"na Severe"}},"geometry":{"type":"MultiPolygon","coordinates":[[[[21.122256,48.780739],[21.122353,48.780981],[21.122661,48.781211],[21.122956,48.781149],[21.123124,48.781317],[21.123134,48.781429],[21.124582,48.782229],[21.125138,48.782785],[21.125485,48.783425],[21.12557,48.783878],[21.125515,48.784098],[21.125779,48.784264],[21.125824,48.784667],[21.126051,48.784718],[21.126961,48.784103],[21.127289,48.784209],[21.128098,48.783322],[21.128252,48.783503],[21.128473,48.783448],[21.129038,48.783626],[21.129925,48.784149],[21.130539,48.783478],[21.130807,48.783324],[21.131154,48.783372],[21.131435,48.783924],[21.131578,48.783946],[21.132285,48.783392],[21.132574,48.783264],[21.132858,48.783247],[21.132913,48.78332],[21.132583,48.784268],[21.132629,48.784301],[21.134211,48.783233],[21.134505,48.783109],[21.135031,48.783091],[21.137018,48.783414],[21.138337,48.783437],[21.138883,48.783243],[21.139208,48.782691],[21.140036,48.781648],[21.14091,48.780743],[21.141049,48.78118],[21.140981,48.781543],[21.141052,48.781538],[21.141452,48.782084],[21.141647,48.782107],[21.141559,48.782234],[21.141844,48.782179],[21.142491,48.782541],[21.141415,48.787077],[21.142616,48.787983],[21.142566,48.78856],[21.143079,48.788722],[21.14392,48.789213],[21.144124,48.789425],[21.144185,48.789609],[21.143858,48.789965],[21.143701,48.790303],[21.142367,48.791643],[21.141411,48.792991],[21.140568,48.793542],[21.14037,48.794009],[21.139625,48.794517],[21.139402,48.79481],[21.139586,48.795402],[21.139553,48.795914],[21.139203,48.796436],[21.139052,48.796948],[21.138782,48.797446],[21.137706,48.798023],[21.137302,48.798496],[21.136135,48.79902],[21.135375,48.799091],[21.134957,48.799431],[21.134296,48.800676],[21.13385,48.801209],[21.133568,48.801811],[21.133575,48.80261],[21.133317,48.803657],[21.132699,48.804059],[21.132654,48.804555],[21.132423,48.804806],[21.131709,48.805202],[21.131708,48.806053],[21.131386,48.80627],[21.131443,48.80663],[21.131048,48.807004],[21.130857,48.80731],[21.130892,48.807497],[21.13078,48.807665],[21.13049,48.808649],[21.130755,48.808906],[21.13086,48.809447],[21.131163,48.810207],[21.132346,48.811017],[21.132439,48.811224],[21.132439,48.811867],[21.133285,48.812363],[21.133895,48.812527],[21.134104,48.812762],[21.134409,48.813635],[21.135308,48.814344],[21.135601,48.814711],[21.135878,48.815756],[21.137086,48.816718],[21.138331,48.817567],[21.139065,48.817661],[21.139356,48.817794],[21.139468,48.818008],[21.139755,48.817945],[21.140789,48.818197],[21.142015,48.819125],[21.147605,48.821189],[21.148214,48.823586],[21.148674,48.823862],[21.149718,48.824241],[21.152288,48.824512],[21.152963,48.824417],[21.153428,48.824241],[21.15431,48.824125],[21.155522,48.823578],[21.156553,48.823291],[21.157303,48.82331],[21.159144,48.823071],[21.159866,48.822815],[21.160436,48.822229],[21.161114,48.821731],[21.161728,48.821449],[21.162022,48.821131],[21.162539,48.820274],[21.163336,48.819278],[21.163735,48.818585],[21.163734,48.818177],[21.163844,48.818045],[21.164184,48.817938],[21.164408,48.817615],[21.163907,48.817429],[21.164106,48.816905],[21.164492,48.816395],[21.164845,48.815701],[21.165374,48.814471],[21.165657,48.814279],[21.166398,48.814165],[21.168571,48.81352],[21.168787,48.81335],[21.168795,48.813132],[21.168998,48.812719],[21.169572,48.812482],[21.170894,48.812214],[21.172473,48.810919],[21.172581,48.810007],[21.17252,48.809683],[21.172575,48.808783],[21.17188,48.807693],[21.172073,48.807452],[21.173438,48.807074],[21.173942,48.806754],[21.174469,48.806118],[21.175409,48.805418],[21.175991,48.804857],[21.176837,48.804425],[21.177123,48.804145],[21.177462,48.804008],[21.178213,48.803961],[21.179134,48.80375],[21.18027,48.802936],[21.181024,48.802926],[21.181335,48.802275],[21.181335,48.80211],[21.181215,48.802113],[21.181002,48.801873],[21.180964,48.801611],[21.180051,48.801139],[21.179684,48.800814],[21.179712,48.800588],[21.180232,48.800232],[21.180436,48.799924],[21.180453,48.799767],[21.180603,48.799594],[21.180535,48.799261],[21.180696,48.799083],[21.181047,48.798373],[21.181054,48.798226],[21.180852,48.797889],[21.180902,48.797245],[21.180632,48.796725],[21.180697,48.796396],[21.181023,48.795982],[21.180921,48.795693],[21.181298,48.795384],[21.182344,48.794147],[21.18314,48.793634],[21.183737,48.792971],[21.183751,48.792386],[21.184051,48.791404],[21.184635,48.790247],[21.184754,48.789751],[21.184774,48.788733],[21.185085,48.787637],[21.184992,48.787232],[21.185021,48.786679],[21.18657,48.78371],[21.187263,48.782894],[21.187402,48.78255],[21.187644,48.781517],[21.187752,48.781332],[21.187888,48.780663],[21.187861,48.780342],[21.188073,48.779755],[21.187867,48.779317],[21.188327,48.778156],[21.188788,48.777588],[21.189092,48.777382],[21.189921,48.776302],[21.190335,48.776266],[21.190444,48.776164],[21.190543,48.776218],[21.190889,48.776165],[21.191271,48.776005],[21.191467,48.775761],[21.191561,48.775865],[21.192211,48.775513],[21.191944,48.775272],[21.192004,48.775214],[21.191868,48.775171],[21.191155,48.77532],[21.191341,48.774977],[21.191235,48.774823],[21.19123,48.774041],[21.19104,48.773636],[21.19143,48.773611],[21.191377,48.773462],[21.191483,48.773387],[21.191456,48.773282],[21.191341,48.773315],[21.191186,48.773132],[21.191207,48.772946],[21.191392,48.772879],[21.19142,48.77262],[21.191147,48.772254],[21.19126,48.771877],[21.191208,48.771778],[21.191478,48.771374],[21.191472,48.77123],[21.191651,48.771137],[21.19227,48.770409],[21.192572,48.770285],[21.193023,48.769846],[21.193027,48.769663],[21.192215,48.768908],[21.192036,48.768481],[21.192959,48.76782],[21.193206,48.767607],[21.193335,48.767318],[21.193557,48.767178],[21.193551,48.766595],[21.194801,48.766624],[21.195794,48.766277],[21.19602,48.766098],[21.196017,48.765071],[21.195923,48.764086],[21.195763,48.7635],[21.195776,48.763211],[21.19507,48.762226],[21.194847,48.762111],[21.194747,48.761883],[21.195656,48.761539],[21.196398,48.761431],[21.196822,48.76128],[21.197857,48.761196],[21.197704,48.760085],[21.197769,48.759464],[21.19793,48.759345],[21.198016,48.759057],[21.19801,48.758685],[21.198159,48.758286],[21.198335,48.758075],[21.198281,48.758034],[21.198443,48.757431],[21.198819,48.756845],[21.199319,48.756625],[21.201138,48.756343],[21.201341,48.756442],[21.202436,48.756486],[21.20259,48.756974],[21.202578,48.757651],[21.202816,48.757839],[21.202963,48.758146],[21.203175,48.75818],[21.203855,48.757856],[21.206994,48.75828],[21.208111,48.758261],[21.208551,48.758521],[21.208844,48.758059],[21.209531,48.757875],[21.210982,48.757797],[21.211178,48.757861],[21.211367,48.757602],[21.211656,48.75743],[21.212089,48.757732],[21.214411,48.758618],[21.214827,48.758891],[21.214495,48.759361],[21.214087,48.759671],[21.214473,48.759768],[21.214879,48.760264],[21.215395,48.760498],[21.215493,48.760625],[21.215666,48.760512],[21.217579,48.761651],[21.219587,48.763106],[21.219765,48.762696],[21.220209,48.762386],[21.220486,48.762515],[21.22135,48.762387],[21.222197,48.762223],[21.22249,48.762031],[21.223081,48.761884],[21.223393,48.761529],[21.223653,48.761026],[21.225385,48.761364],[21.225891,48.761729],[21.22647,48.76265],[21.225644,48.763478],[21.224616,48.763993],[21.225068,48.764272],[21.224809,48.764786],[21.224737,48.76522],[21.225086,48.76826],[21.225,48.768619],[21.224605,48.769433],[21.224891,48.769504],[21.22565,48.769369],[21.226369,48.769631],[21.226597,48.769779],[21.226986,48.770423],[21.227649,48.770876],[21.228212,48.771429],[21.228162,48.771811],[21.227812,48.772009],[21.227758,48.772154],[21.227235,48.772314],[21.227324,48.772447],[21.227492,48.772403],[21.227301,48.772715],[21.227284,48.772923],[21.22707,48.772996],[21.226996,48.773329],[21.226851,48.773449],[21.22687,48.774373],[21.227514,48.774263],[21.227608,48.774523],[21.227886,48.774508],[21.228165,48.774759],[21.22837,48.774736],[21.228423,48.774874],[21.22853,48.774864],[21.228668,48.775045],[21.229417,48.7755],[21.230625,48.775845],[21.231708,48.775581],[21.232267,48.775547],[21.232998,48.775608],[21.233983,48.775882],[21.234336,48.775884],[21.234723,48.775584],[21.235242,48.77585],[21.235715,48.775709],[21.236037,48.775819],[21.236434,48.775581],[21.236709,48.775148],[21.236386,48.775171],[21.236396,48.775055],[21.236871,48.775007],[21.236941,48.774824],[21.237119,48.774831],[21.237054,48.774709],[21.237701,48.774139],[21.237951,48.773698],[21.23787,48.773635],[21.237905,48.773389],[21.23806,48.773233],[21.238195,48.773294],[21.238588,48.772532],[21.239452,48.772197],[21.240104,48.772382],[21.24007,48.772498],[21.240769,48.772513],[21.24209,48.771734],[21.242473,48.771679],[21.242588,48.771484],[21.242541,48.771349],[21.243789,48.771226],[21.244432,48.77129],[21.244252,48.770707],[21.24358,48.7701],[21.242363,48.769709],[21.240821,48.769605],[21.240372,48.769463],[21.239447,48.768938],[21.239101,48.768617],[21.238903,48.768234],[21.239221,48.767583],[21.240298,48.766734],[21.241899,48.765908],[21.242908,48.765109],[21.246017,48.76318],[21.246465,48.7628],[21.248574,48.760501],[21.248383,48.7604],[21.253249,48.754882],[21.253765,48.753915],[21.256808,48.744218],[21.257312,48.744273],[21.257881,48.742191],[21.258214,48.741554],[21.258294,48.741557],[21.258394,48.741408],[21.258309,48.741369],[21.258688,48.740887],[21.259537,48.740127],[21.260379,48.739591],[21.260989,48.739318],[21.262248,48.738884],[21.263108,48.738852],[21.264469,48.73864],[21.265565,48.738327],[21.26666,48.737762],[21.267259,48.737202],[21.267632,48.736548],[21.26772,48.736055],[21.267699,48.734991],[21.267019,48.735005],[21.26626,48.7349],[21.264254,48.734467],[21.26386,48.73449],[21.263402,48.734369],[21.262759,48.733941],[21.261251,48.732567],[21.254716,48.732265],[21.253522,48.731948],[21.250943,48.730915],[21.25038,48.731653],[21.249804,48.731506],[21.240014,48.728217],[21.240123,48.728177],[21.239846,48.728135],[21.239841,48.728039],[21.240162,48.727182],[21.238916,48.726345],[21.238173,48.726251],[21.237775,48.726073],[21.236393,48.725808],[21.234241,48.7259],[21.232896,48.725786],[21.231713,48.725387],[21.231794,48.725256],[21.231684,48.725193],[21.231833,48.724889],[21.231301,48.724826],[21.23023,48.724498],[21.230263,48.724426],[21.230046,48.724373],[21.229846,48.724769],[21.228261,48.724702],[21.227376,48.724888],[21.226969,48.724881],[21.227021,48.724771],[21.226892,48.724717],[21.225692,48.725014],[21.22475,48.72454],[21.223621,48.725686],[21.221532,48.726602],[21.221278,48.72669],[21.220268,48.726684],[21.219065,48.726966],[21.219845,48.725937],[21.220003,48.725584],[21.219016,48.725291],[21.21809,48.724886],[21.217825,48.724898],[21.217278,48.725253],[21.217213,48.72515],[21.217024,48.725096],[21.216939,48.724675],[21.216773,48.724513],[21.216098,48.724342],[21.217021,48.721837],[21.216232,48.7218],[21.215478,48.722007],[21.214718,48.722084],[21.213429,48.72246],[21.21258,48.722848],[21.211959,48.723281],[21.211848,48.723186],[21.209788,48.724576],[21.209298,48.724738],[21.208546,48.724857],[21.204659,48.725077],[21.201867,48.725572],[21.198944,48.726864],[21.199027,48.726922],[21.198329,48.727479],[21.197588,48.727836],[21.196878,48.727917],[21.196218,48.728243],[21.19559,48.728385],[21.195538,48.728471],[21.195334,48.72835],[21.195103,48.728344],[21.194919,48.728442],[21.193389,48.728577],[21.192113,48.729252],[21.191972,48.729474],[21.191762,48.729404],[21.191338,48.729774],[21.189931,48.729521],[21.189205,48.729743],[21.188818,48.729974],[21.188787,48.730063],[21.187245,48.730913],[21.186597,48.731525],[21.186254,48.732241],[21.186069,48.732367],[21.185671,48.731907],[21.185068,48.731422],[21.184531,48.731142],[21.184357,48.731104],[21.183461,48.731267],[21.182366,48.731066],[21.180833,48.731103],[21.180621,48.731246],[21.180785,48.731628],[21.181008,48.731812],[21.180941,48.733033],[21.18043,48.733],[21.180431,48.733079],[21.179326,48.733108],[21.178596,48.733276],[21.178542,48.732969],[21.178618,48.732705],[21.179259,48.731684],[21.1785,48.731536],[21.177529,48.731623],[21.176642,48.731192],[21.176303,48.731196],[21.173483,48.731774],[21.173956,48.732798],[21.172529,48.733237],[21.172162,48.732262],[21.171835,48.732239],[21.171192,48.731956],[21.170463,48.73182],[21.169709,48.731713],[21.16932,48.731825],[21.167319,48.732818],[21.167097,48.734257],[21.165542,48.735596],[21.164621,48.73514],[21.163574,48.736067],[21.163338,48.736194],[21.162552,48.73739],[21.162462,48.738157],[21.162155,48.738855],[21.161879,48.739223],[21.161061,48.740011],[21.159503,48.741026],[21.158643,48.741385],[21.157855,48.741997],[21.157048,48.742165],[21.156551,48.742146],[21.156402,48.742556],[21.155686,48.743719],[21.15451,48.744557],[21.153395,48.745788],[21.152718,48.746279],[21.152249,48.746826],[21.151509,48.747249],[21.151301,48.747471],[21.150138,48.747774],[21.149562,48.748048],[21.148768,48.748694],[21.148532,48.748795],[21.148227,48.749055],[21.148193,48.749174],[21.147637,48.749356],[21.14753,48.749554],[21.146877,48.749864],[21.146778,48.750008],[21.146601,48.749995],[21.146537,48.750157],[21.146187,48.750212],[21.145964,48.750397],[21.145661,48.750469],[21.144509,48.751079],[21.143847,48.751227],[21.143725,48.751436],[21.142965,48.751962],[21.142383,48.752521],[21.140344,48.753566],[21.140256,48.753936],[21.140737,48.754437],[21.138915,48.756223],[21.138233,48.757147],[21.136787,48.756161],[21.136257,48.755913],[21.13559,48.755963],[21.135002,48.756295],[21.13479,48.756063],[21.134086,48.755873],[21.133683,48.755957],[21.133146,48.755896],[21.132888,48.755954],[21.132454,48.755779],[21.131458,48.755745],[21.130636,48.756249],[21.130391,48.756572],[21.129796,48.757024],[21.129706,48.757211],[21.129301,48.757466],[21.128508,48.757577],[21.128189,48.757833],[21.127211,48.758369],[21.126852,48.75895],[21.126484,48.75918],[21.125914,48.759456],[21.124901,48.75973],[21.123638,48.759864],[21.122183,48.76071],[21.121818,48.761148],[21.121375,48.761407],[21.121009,48.761786],[21.119956,48.763439],[21.123595,48.765491],[21.125766,48.766128],[21.125908,48.766413],[21.125672,48.766776],[21.125324,48.766664],[21.125063,48.766959],[21.125144,48.767262],[21.125518,48.767496],[21.125233,48.768096],[21.124894,48.768552],[21.124826,48.768791],[21.124848,48.769451],[21.12457,48.770063],[21.124287,48.770527],[21.123708,48.771007],[21.123341,48.771492],[21.123331,48.773086],[21.122732,48.773826],[21.122708,48.774068],[21.123022,48.774245],[21.123157,48.774172],[21.123249,48.776287],[21.122844,48.777247],[21.123016,48.778154],[21.122867,48.779078],[21.122694,48.779329],[21.122279,48.779553],[21.122289,48.779747],[21.122866,48.779978],[21.122591,48.780044],[21.122514,48.780533],[21.122256,48.780739]]]]}},{"type":"Feature","properties":{"name":"Sídlisko KVP","slug":"sidlisko-kvp","osm_relation":1692758,"in":{"en":"in Sídlisko KVP","sk":"na Sídlisku KVP"}},"geometry":{"type":"MultiPolygon","coordinates":[[[[21.201867,48.725572],[21.204659,48.725077],[21.208546,48.724857],[21.209298,48.724738],[21.209788,48.724576],[21.211848,48.723186],[21.211959,48.723281],[21.21258,48.722848],[21.213429,48.72246],[21.214718,48.722084],[21.215478,48.722007],[21.216232,48.7218],[21.217566,48.721781],[21.218614,48.722295],[21.219186,48.722422],[21.219381,48.72181],[21.218941,48.721721],[21.218733,48.719417],[21.219253,48.717618],[21.21955,48.717053],[21.219867,48.717103],[21.219964,48.716371],[21.22027,48.71608],[21.220167,48.716077],[21.220205,48.715761],[21.220667,48.713162],[21.220271,48.71298],[21.220065,48.712232],[21.220195,48.711793],[21.219954,48.71064],[21.219644,48.710218],[21.219344,48.709488],[21.219579,48.70927],[21.219305,48.708914],[21.219246,48.708491],[21.219412,48.707832],[21.219558,48.705701],[21.219453,48.705611],[21.219068,48.705572],[21.218559,48.705198],[21.217287,48.705498],[21.217181,48.705697],[21.216345,48.706373],[21.215634,48.70621],[21.214013,48.706708],[21.212153,48.708075],[21.208171,48.710602],[21.208303,48.710768],[21.209002,48.71092],[21.208858,48.71122],[21.207977,48.710895],[21.207379,48.710948],[21.206716,48.712556],[21.205025,48.711955],[21.20541,48.712834],[21.20543,48.713362],[21.206611,48.713824],[21.206572,48.714183],[21.206674,48.714279],[21.20605,48.716132],[21.206093,48.716492],[21.205257,48.719515],[21.204818,48.720391],[21.204881,48.721263],[21.204442,48.721348],[21.204086,48.721665],[21.203544,48.722773],[21.202968,48.723504],[21.202561,48.724546],[21.201867,48.725572]]]]}},{"type":"Feature","properties":{"name":"Sídlisko Ťahanovce","slug":"sidlisko-tahanovce","osm_relation":1593426,"in":{"en":"in Sídlisko Ťahanovce","sk":"na Sídlisku Ťahanovce"}},"geometry":{"type":"MultiPolygon","coordinates":[[[[21.257312,48.744273],[21.262714,48.746284],[21.262915,48.745746],[21.26287,48.745365],[21.26912,48.747038],[21.269512,48.746822],[21.268864,48.747344],[21.270598,48.747693],[21.267765,48.74936],[21.266638,48.750134],[21.265393,48.751131],[21.264498,48.750952],[21.265407,48.751496],[21.264483,48.752173],[21.263576,48.751628],[21.262097,48.751997],[21.260304,48.753273],[21.261518,48.753988],[21.26208,48.754106],[21.262068,48.754202],[21.263946,48.754763],[21.263384,48.755283],[21.265085,48.755652],[21.263343,48.756924],[21.26314,48.756893],[21.263023,48.756974],[21.263081,48.757114],[21.262915,48.757314],[21.262328,48.757696],[21.262203,48.757629],[21.262046,48.757781],[21.262141,48.757839],[21.261911,48.758042],[21.259644,48.759685],[21.259557,48.759852],[21.259657,48.760031],[21.260201,48.760361],[21.260198,48.760477],[21.260423,48.760494],[21.260766,48.760727],[21.261018,48.761143],[21.260997,48.761536],[21.260667,48.761879],[21.259946,48.762411],[21.259801,48.762672],[21.259828,48.762969],[21.260052,48.76325],[21.260617,48.763467],[21.261285,48.763439],[21.261416,48.763779],[21.260749,48.7637],[21.260123,48.764077],[21.260441,48.764616],[21.26081,48.764832],[21.261261,48.764952],[21.263421,48.766038],[21.263497,48.766157],[21.264602,48.766208],[21.264874,48.766358],[21.265013,48.766255],[21.265372,48.766384],[21.265662,48.76628],[21.266181,48.766485],[21.266504,48.766418],[21.26676,48.766487],[21.267133,48.766688],[21.267292,48.766965],[21.267563,48.767121],[21.267673,48.767392],[21.267844,48.767474],[21.267906,48.767681],[21.268046,48.767616],[21.268238,48.767865],[21.2686,48.767979],[21.268651,48.768175],[21.2689,48.768018],[21.269108,48.768021],[21.268936,48.768507],[21.268849,48.769191],[21.269187,48.769688],[21.269221,48.77003],[21.269515,48.770607],[21.269767,48.770867],[21.270374,48.772121],[21.270711,48.772491],[21.27148,48.772881],[21.272486,48.773052],[21.272805,48.773316],[21.273089,48.774154],[21.273304,48.774312],[21.275275,48.774863],[21.276106,48.775009],[21.276147,48.775271],[21.274826,48.775823],[21.274848,48.776226],[21.274748,48.776639],[21.27488,48.776929],[21.274977,48.776893],[21.275658,48.777496],[21.275407,48.777663],[21.275289,48.777863],[21.275416,48.778563],[21.275302,48.780992],[21.275522,48.782239],[21.275496,48.782491],[21.275827,48.783707],[21.275801,48.784634],[21.275403,48.785685],[21.275335,48.786577],[21.275422,48.787016],[21.275351,48.787256],[21.275001,48.787801],[21.274299,48.788421],[21.273992,48.788929],[21.273774,48.791102],[21.273332,48.791901],[21.273156,48.793224],[21.273183,48.793632],[21.273482,48.794142],[21.273773,48.794078],[21.27465,48.793632],[21.275224,48.792182],[21.282098,48.795243],[21.283151,48.795979],[21.286027,48.796904],[21.286189,48.796879],[21.286349,48.796631],[21.28681,48.795398],[21.290721,48.795437],[21.292451,48.794638],[21.295877,48.793403],[21.297995,48.791091],[21.298838,48.788569],[21.299643,48.788126],[21.298556,48.787671],[21.299463,48.78583],[21.297013,48.785267],[21.296324,48.785029],[21.295727,48.784717],[21.295254,48.784596],[21.295103,48.784394],[21.294007,48.783557],[21.293446,48.782772],[21.292845,48.782313],[21.292409,48.781606],[21.291506,48.780702],[21.291049,48.780619],[21.291199,48.779389],[21.291578,48.778463],[21.292261,48.777976],[21.294332,48.775533],[21.294737,48.774886],[21.294946,48.774211],[21.294863,48.773383],[21.292587,48.766981],[21.29217,48.766123],[21.291688,48.765595],[21.290909,48.765043],[21.289289,48.764367],[21.288535,48.764158],[21.288025,48.76392],[21.286961,48.763241],[21.285759,48.761818],[21.284773,48.761147],[21.2834,48.760018],[21.282781,48.759318],[21.282696,48.759017],[21.282573,48.758874],[21.280376,48.756614],[21.278409,48.75416],[21.277899,48.753774],[21.277475,48.752751],[21.276051,48.750213],[21.275272,48.748595],[21.274695,48.747619],[21.273944,48.746635],[21.273714,48.746381],[21.27107,48.744494],[21.269253,48.74364],[21.268308,48.743304],[21.266771,48.742898],[21.264379,48.742528],[21.26119,48.742305],[21.260354,48.742183],[21.258937,48.741818],[21.258316,48.741531],[21.258214,48.741554],[21.257881,48.742191],[21.257312,48.744273]]]]}},{"type":"Feature","properties":{"name":"Staré Mesto","slug":"stare-mesto","osm_relation":1593425,"in":{"en":"in Staré Mesto","sk":"v Starom Meste"}},"geometry":{"type":"MultiPolygon","coordinates":[[[[21.238916,48.726345],[21.239182,48.726166],[21.239884,48.726059],[21.240983,48.724658],[21.241254,48.724138],[21.241828,48.723652],[21.242464,48.722853],[21.243388,48.720485],[21.244026,48.720447],[21.243943,48.719565],[21.244346,48.719543],[21.244313,48.719421],[21.244435,48.719411],[21.244098,48.719145],[21.244253,48.718871],[21.244793,48.718375],[21.244421,48.718222],[21.244739,48.717864],[21.243743,48.717675],[21.242859,48.717363],[21.242914,48.717171],[21.242858,48.717142],[21.243793,48.716657],[21.243419,48.716319],[21.243669,48.716225],[21.244519,48.716605],[21.245434,48.717262],[21.245743,48.716865],[21.245084,48.71658],[21.245231,48.716257],[21.245635,48.716331],[21.24643,48.716308],[21.246295,48.716066],[21.24648,48.71602],[21.24612,48.715945],[21.246158,48.715759],[21.246744,48.715073],[21.247556,48.714863],[21.247798,48.715671],[21.248072,48.715908],[21.250029,48.716374],[21.250191,48.716341],[21.250681,48.716464],[21.256207,48.715997],[21.260631,48.716329],[21.261008,48.716474],[21.261111,48.716606],[21.262488,48.717174],[21.262585,48.717122],[21.262873,48.717243],[21.262971,48.717118],[21.262936,48.717236],[21.26406,48.717711],[21.271296,48.718936],[21.272298,48.719568],[21.274772,48.721736],[21.274827,48.721813],[21.274685,48.721872],[21.275716,48.722933],[21.276952,48.726233],[21.276823,48.726211],[21.277089,48.727954],[21.277094,48.729142],[21.277269,48.729368],[21.277096,48.729327],[21.277052,48.73005],[21.276923,48.730639],[21.27678,48.731073],[21.276135,48.732294],[21.276221,48.732358],[21.275013,48.733708],[21.27474,48.733803],[21.274779,48.733881],[21.274089,48.734794],[21.273601,48.7362],[21.273259,48.736356],[21.270079,48.735528],[21.268088,48.734836],[21.267814,48.734875],[21.267826,48.73496],[21.267694,48.734992],[21.267019,48.735005],[21.264434,48.734554],[21.264254,48.734467],[21.263566,48.734425],[21.262759,48.733941],[21.261251,48.732567],[21.254716,48.732265],[21.253522,48.731948],[21.250943,48.730915],[21.25038,48.731653],[21.249804,48.731506],[21.240014,48.728217],[21.240123,48.728177],[21.239846,48.728135],[21.239841,48.728039],[21.240162,48.727182],[21.238916,48.726345]]]]}},{"type":"Feature","properties":{"name":"Ťahanovce","slug":"tahanovce","in":{"en":"in Ťahanovce","sk":"v Ťahanovciach"},"osm_relation":1837692},"geometry":{"type":"MultiPolygon","coordinates":[[[[21.244432,48.77129],[21.244262,48.771952],[21.242866,48.773229],[21.2424,48.773956],[21.241924,48.774887],[21.241347,48.776436],[21.240959,48.777237],[21.240406,48.778057],[21.240488,48.77874],[21.240895,48.779558],[21.243737,48.779674],[21.243883,48.780165],[21.244561,48.780702],[21.246081,48.780225],[21.247362,48.779927],[21.247301,48.780477],[21.249604,48.78017],[21.249793,48.780312],[21.251823,48.779784],[21.25198,48.780518],[21.251174,48.780739],[21.251243,48.781746],[21.251493,48.782734],[21.256577,48.784133],[21.258767,48.784556],[21.25957,48.784988],[21.260024,48.785632],[21.260232,48.785726],[21.261069,48.785506],[21.261714,48.784763],[21.262351,48.783829],[21.263515,48.784059],[21.263703,48.785033],[21.264286,48.785691],[21.26448,48.786308],[21.262869,48.786754],[21.262795,48.787447],[21.264017,48.788059],[21.266149,48.78937],[21.26598,48.791593],[21.265381,48.79318],[21.26562,48.793151],[21.266566,48.793874],[21.267907,48.794301],[21.270719,48.79496],[21.270093,48.795302],[21.269707,48.79608],[21.26968,48.796387],[21.269799,48.797976],[21.269966,48.798544],[21.270367,48.799312],[21.270933,48.79906],[21.271941,48.800665],[21.272698,48.800703],[21.273453,48.800937],[21.274586,48.801016],[21.274545,48.800474],[21.274113,48.799907],[21.273863,48.799257],[21.273288,48.79867],[21.272882,48.797845],[21.272793,48.797282],[21.273265,48.796085],[21.273178,48.79563],[21.273545,48.794792],[21.273482,48.794142],[21.273183,48.793632],[21.273156,48.793224],[21.273332,48.791901],[21.273774,48.791102],[21.273992,48.788929],[21.274299,48.788421],[21.275001,48.787801],[21.275351,48.787256],[21.275422,48.787016],[21.275335,48.786577],[21.275403,48.785685],[21.275801,48.784634],[21.275827,48.783707],[21.275496,48.782491],[21.275522,48.782239],[21.275302,48.780992],[21.275416,48.778563],[21.275289,48.777863],[21.275407,48.777663],[21.275658,48.777496],[21.274977,48.776893],[21.27488,48.776929],[21.274748,48.776639],[21.274848,48.776226],[21.274826,48.775823],[21.276147,48.775271],[21.276106,48.775009],[21.275275,48.774863],[21.273304,48.774312],[21.273089,48.774154],[21.272805,48.773316],[21.272486,48.773052],[21.27148,48.772881],[21.270711,48.772491],[21.270374,48.772121],[21.269767,48.770867],[21.269515,48.770607],[21.269221,48.77003],[21.269187,48.769688],[21.268849,48.769191],[21.268936,48.768507],[21.269108,48.768021],[21.2689,48.768018],[21.268651,48.768175],[21.2686,48.767979],[21.268238,48.767865],[21.268046,48.767616],[21.267906,48.767681],[21.267844,48.767474],[21.267673,48.767392],[21.267563,48.767121],[21.267292,48.766965],[21.267133,48.766688],[21.26676,48.766487],[21.266504,48.766418],[21.266181,48.766485],[21.265662,48.76628],[21.265372,48.766384],[21.265013,48.766255],[21.264874,48.766358],[21.264602,48.766208],[21.263497,48.766157],[21.263421,48.766038],[21.261261,48.764952],[21.26081,48.764832],[21.260441,48.764616],[21.260123,48.764077],[21.260749,48.7637],[21.261416,48.763779],[21.261285,48.763439],[21.260617,48.763467],[21.260052,48.76325],[21.259828,48.762969],[21.259801,48.762672],[21.259946,48.762411],[21.260667,48.761879],[21.260997,48.761536],[21.261018,48.761143],[21.260766,48.760727],[21.260423,48.760494],[21.260198,48.760477],[21.260201,48.760361],[21.259657,48.760031],[21.259557,48.759852],[21.259644,48.759685],[21.261911,48.758042],[21.262141,48.757839],[21.262046,48.757781],[21.262203,48.757629],[21.262328,48.757696],[21.262915,48.757314],[21.263081,48.757114],[21.263023,48.756974],[21.26314,48.756893],[21.263343,48.756924],[21.265085,48.755652],[21.263384,48.755283],[21.263946,48.754763],[21.262068,48.754202],[21.26208,48.754106],[21.261518,48.753988],[21.260304,48.753273],[21.262097,48.751997],[21.263576,48.751628],[21.264483,48.752173],[21.265407,48.751496],[21.264498,48.750952],[21.265393,48.751131],[21.266638,48.750134],[21.267765,48.74936],[21.270598,48.747693],[21.268864,48.747344],[21.269512,48.746822],[21.26912,48.747038],[21.26287,48.745365],[21.262915,48.745746],[21.262714,48.746284],[21.257222,48.74424],[21.256808,48.744218],[21.253765,48.753915],[21.253249,48.754882],[21.248383,48.7604],[21.248574,48.760501],[21.246465,48.7628],[21.246017,48.76318],[21.242908,48.765109],[21.241899,48.765908],[21.241286,48.766174],[21.239761,48.767102],[21.239221,48.767583],[21.238903,48.768234],[21.239101,48.768617],[21.239447,48.768938],[21.240372,48.769463],[21.241361,48.76969],[21.242737,48.769778],[21.24358,48.7701],[21.244252,48.770707],[21.244432,48.77129]]]]}},{"type":"Feature","properties":{"name":"Vyšné Opátske","slug":"vysne-opatske","osm_relation":1698623,"in":{"en":"in Vyšné Opátske","sk":"vo Vyšnom Opátskom"}},"geometry":{"type":"MultiPolygon","coordinates":[[[[21.274772,48.721736],[21.274827,48.721813],[21.274685,48.721872],[21.275716,48.722933],[21.276321,48.724539],[21.276652,48.724469],[21.277159,48.725009],[21.278968,48.725863],[21.279279,48.726101],[21.279226,48.726165],[21.279962,48.726494],[21.280617,48.72665],[21.280995,48.72655],[21.281126,48.726652],[21.281373,48.726646],[21.281772,48.726528],[21.282436,48.72616],[21.282395,48.726113],[21.282652,48.725934],[21.283052,48.725751],[21.284493,48.724505],[21.286259,48.72381],[21.288017,48.723318],[21.288829,48.722871],[21.289268,48.722374],[21.289538,48.721657],[21.289561,48.721331],[21.289923,48.72119],[21.290688,48.721104],[21.290979,48.721215],[21.291738,48.721313],[21.292562,48.722072],[21.292961,48.723234],[21.293025,48.723858],[21.293225,48.723857],[21.294299,48.723073],[21.295286,48.722562],[21.296113,48.721907],[21.296043,48.721605],[21.294797,48.720107],[21.294344,48.719444],[21.293624,48.717634],[21.293559,48.715686],[21.293704,48.714588],[21.293596,48.713503],[21.294409,48.713588],[21.294544,48.713887],[21.295929,48.714166],[21.29606,48.714774],[21.295968,48.715024],[21.297199,48.715066],[21.298242,48.715221],[21.29898,48.714425],[21.301422,48.713441],[21.301825,48.713104],[21.302652,48.712751],[21.3036,48.71192],[21.302975,48.711322],[21.301266,48.710131],[21.30002,48.709924],[21.299346,48.709572],[21.298455,48.709431],[21.298215,48.709283],[21.297454,48.709053],[21.297118,48.709269],[21.296617,48.709316],[21.293878,48.708859],[21.293239,48.708034],[21.293251,48.707916],[21.294701,48.706823],[21.29536,48.70597],[21.295369,48.705671],[21.295249,48.705483],[21.294831,48.705241],[21.294574,48.704138],[21.294442,48.703777],[21.294266,48.703553],[21.294412,48.703177],[21.294414,48.702413],[21.293916,48.701285],[21.292851,48.700532],[21.291093,48.700038],[21.291793,48.697649],[21.293083,48.695295],[21.293095,48.695061],[21.294309,48.6943],[21.294389,48.694268],[21.29449,48.694372],[21.295163,48.693798],[21.295106,48.693716],[21.295338,48.693289],[21.295256,48.692823],[21.295425,48.692588],[21.294967,48.692378],[21.294641,48.690832],[21.294225,48.690861],[21.294495,48.690731],[21.294089,48.690689],[21.294103,48.690443],[21.294267,48.690095],[21.29402,48.690038],[21.293978,48.688749],[21.294182,48.688199],[21.294034,48.688107],[21.293565,48.688201],[21.293412,48.688448],[21.293219,48.689262],[21.292963,48.689614],[21.293014,48.689858],[21.293161,48.689899],[21.29337,48.689635],[21.29339,48.689744],[21.293211,48.689963],[21.292945,48.690072],[21.292837,48.690843],[21.292297,48.691797],[21.292006,48.692129],[21.285468,48.698018],[21.284486,48.698609],[21.283604,48.698987],[21.283567,48.698941],[21.28182,48.699305],[21.280758,48.699637],[21.280866,48.698979],[21.280157,48.699189],[21.279397,48.699719],[21.277688,48.701227],[21.275714,48.703224],[21.275803,48.703584],[21.275707,48.703853],[21.275656,48.704469],[21.275849,48.705495],[21.277454,48.707752],[21.277947,48.708937],[21.278043,48.709515],[21.277891,48.710849],[21.276208,48.720457],[21.275784,48.721076],[21.275495,48.721326],[21.274772,48.721736]]]]}},{"type":"Feature","properties":{"name":"Západ","slug":"zapad","osm_relation":1692757,"in":{"en":"in Západ","sk":"na Západe"}},"geometry":{"type":"MultiPolygon","coordinates":[[[[21.217021,48.721837],[21.217041,48.721782],[21.217566,48.721781],[21.218614,48.722295],[21.219186,48.722422],[21.219381,48.72181],[21.218941,48.721721],[21.218733,48.719417],[21.219253,48.717618],[21.21955,48.717053],[21.219867,48.717103],[21.219964,48.716371],[21.22027,48.71608],[21.220167,48.716077],[21.220205,48.715761],[21.220667,48.713162],[21.220271,48.71298],[21.220168,48.712647],[21.220065,48.712232],[21.220195,48.711793],[21.219965,48.710684],[21.219644,48.710218],[21.219344,48.709488],[21.219579,48.70927],[21.219305,48.708914],[21.219246,48.708491],[21.219412,48.707832],[21.21956,48.705661],[21.220234,48.705556],[21.220701,48.704895],[21.220558,48.704806],[21.220467,48.704607],[21.220049,48.703128],[21.219872,48.702774],[21.219824,48.702511],[21.219936,48.702189],[21.220662,48.701524],[21.220712,48.701136],[21.221504,48.700639],[21.221691,48.700003],[21.222534,48.700205],[21.222914,48.699999],[21.224277,48.699672],[21.225583,48.698935],[21.226424,48.698731],[21.226822,48.698509],[21.22726,48.697977],[21.227347,48.697749],[21.228004,48.69748],[21.229204,48.696643],[21.229471,48.696105],[21.230394,48.695598],[21.230748,48.695232],[21.232683,48.694501],[21.233182,48.694226],[21.233252,48.694069],[21.231076,48.691867],[21.236933,48.697672],[21.239516,48.700666],[21.243667,48.705235],[21.244948,48.706797],[21.246986,48.710033],[21.247056,48.710389],[21.246994,48.710537],[21.247076,48.710533],[21.246512,48.711301],[21.246409,48.711558],[21.246425,48.713281],[21.246723,48.71382],[21.247556,48.714863],[21.246744,48.715073],[21.246158,48.715759],[21.24612,48.715945],[21.24648,48.71602],[21.246295,48.716066],[21.24643,48.716308],[21.245635,48.716331],[21.245231,48.716257],[21.245084,48.71658],[21.245743,48.716865],[21.245434,48.717262],[21.244519,48.716605],[21.243669,48.716225],[21.243419,48.716319],[21.243793,48.716657],[21.242858,48.717142],[21.242914,48.717171],[21.242859,48.717363],[21.243743,48.717675],[21.244739,48.717864],[21.244421,48.718222],[21.244793,48.718375],[21.244253,48.718871],[21.244098,48.719145],[21.244435,48.719411],[21.244313,48.719421],[21.244346,48.719543],[21.243943,48.719565],[21.244026,48.720447],[21.243388,48.720485],[21.242464,48.722853],[21.241828,48.723652],[21.241254,48.724138],[21.240983,48.724658],[21.239884,48.726059],[21.239182,48.726166],[21.238916,48.726345],[21.238173,48.726251],[21.237775,48.726073],[21.236393,48.725808],[21.234241,48.7259],[21.232896,48.725786],[21.231713,48.725387],[21.231794,48.725256],[21.231684,48.725193],[21.231833,48.724889],[21.231301,48.724826],[21.23023,48.724498],[21.230263,48.724426],[21.230046,48.724373],[21.229846,48.724769],[21.228261,48.724702],[21.227376,48.724888],[21.226969,48.724881],[21.227021,48.724771],[21.226892,48.724717],[21.225692,48.725014],[21.22475,48.72454],[21.223621,48.725686],[21.221532,48.726602],[21.221278,48.72669],[21.220268,48.726684],[21.219065,48.726966],[21.219845,48.725937],[21.219989,48.725565],[21.219016,48.725291],[21.21809,48.724886],[21.217825,48.724898],[21.217278,48.725253],[21.217213,48.72515],[21.217024,48.725096],[21.216939,48.724675],[21.216773,48.724513],[21.216098,48.724342],[21.217021,48.721837]]]]}}]}
